{"code":0,"data":[{"name":"保山市","district":[{"name":"昌宁县","zipcode":"678000"},{"name":"龙陵县","zipcode":"678000"},{"name":"隆阳区","zipcode":"678000"},{"name":"施甸县","zipcode":"678000"},{"name":"腾冲县","zipcode":"678000"},{"name":"其他","zipcode":"678000"}]},{"name":"楚雄彝族自治州","district":[{"name":"楚雄市","zipcode":"675000"},{"name":"大姚县","zipcode":"675000"},{"name":"禄丰县","zipcode":"675000"},{"name":"牟定县","zipcode":"675000"},{"name":"南华县","zipcode":"675000"},{"name":"双柏县","zipcode":"675000"},{"name":"武定县","zipcode":"675000"},{"name":"姚安县","zipcode":"675000"},{"name":"永仁县","zipcode":"675000"},{"name":"元谋县","zipcode":"675000"},{"name":"其他","zipcode":"675000"}]},{"name":"大理白族自治州","district":[{"name":"宾川县","zipcode":"671000"},{"name":"大理市","zipcode":"671000"},{"name":"洱源县","zipcode":"671000"},{"name":"鹤庆县","zipcode":"671000"},{"name":"剑川县","zipcode":"671000"},{"name":"弥渡县","zipcode":"671000"},{"name":"南涧彝族自治县","zipcode":"671000"},{"name":"巍山彝族回族自治县","zipcode":"671000"},{"name":"祥云县","zipcode":"671000"},{"name":"漾濞彝族自治县","zipcode":"671000"},{"name":"永平县","zipcode":"671000"},{"name":"云龙县","zipcode":"671000"},{"name":"其他","zipcode":"671000"}]},{"name":"德宏傣族景颇族自治州","district":[{"name":"梁河县","zipcode":"678400"},{"name":"陇川县","zipcode":"678400"},{"name":"潞西市","zipcode":"678400"},{"name":"瑞丽市","zipcode":"678400"},{"name":"盈江县","zipcode":"678400"},{"name":"其他","zipcode":"678400"}]},{"name":"迪庆藏族自治州","district":[{"name":"德钦县","zipcode":"674400"},{"name":"维西傈僳族自治县","zipcode":"674400"},{"name":"香格里拉县","zipcode":"674400"},{"name":"其他","zipcode":"674400"}]},{"name":"红河哈尼族彝族自治州","district":[{"name":"个旧市","zipcode":"661400"},{"name":"河口瑶族自治县","zipcode":"661400"},{"name":"红河县","zipcode":"661400"},{"name":"建水县","zipcode":"661400"},{"name":"金平苗族瑶族傣族自治县","zipcode":"661400"},{"name":"开远市","zipcode":"661400"},{"name":"泸西县","zipcode":"661400"},{"name":"绿春县","zipcode":"661400"},{"name":"蒙自县","zipcode":"661400"},{"name":"弥勒县","zipcode":"661400"},{"name":"屏边苗族自治县","zipcode":"661400"},{"name":"石屏县","zipcode":"661400"},{"name":"元阳县","zipcode":"661400"},{"name":"其他","zipcode":"661400"}]},{"name":"昆明市","district":[{"name":"安宁市","zipcode":"650000"},{"name":"呈贡县","zipcode":"650000"},{"name":"东川区","zipcode":"650000"},{"name":"富民县","zipcode":"650000"},{"name":"官渡区","zipcode":"650000"},{"name":"晋宁县","zipcode":"650000"},{"name":"禄劝彝族苗族自治县","zipcode":"650000"},{"name":"盘龙区","zipcode":"650000"},{"name":"石林彝族自治县","zipcode":"650000"},{"name":"嵩明县","zipcode":"650000"},{"name":"五华区","zipcode":"650000"},{"name":"西山区","zipcode":"650000"},{"name":"寻甸回族彝族自治县","zipcode":"650000"},{"name":"宜良县","zipcode":"650000"},{"name":"其他","zipcode":"650000"}]},{"name":"丽江市","district":[{"name":"古城区","zipcode":"674100"},{"name":"华坪县","zipcode":"674100"},{"name":"宁蒗彝族自治县","zipcode":"674100"},{"name":"永胜县","zipcode":"674100"},{"name":"玉龙纳西族自治县","zipcode":"674100"},{"name":"其他","zipcode":"674100"}]},{"name":"临沧市","district":[{"name":"沧源佤族自治县","zipcode":"677000"},{"name":"凤庆县","zipcode":"677000"},{"name":"耿马傣族佤族自治县","zipcode":"677000"},{"name":"临翔区","zipcode":"677000"},{"name":"双江拉祜族佤族布朗族傣族自治县","zipcode":"677000"},{"name":"永德县","zipcode":"677000"},{"name":"云县","zipcode":"677000"},{"name":"镇康县","zipcode":"677000"},{"name":"其他","zipcode":"677000"}]},{"name":"怒江傈僳族自治州","district":[{"name":"福贡县","zipcode":"673100"},{"name":"贡山独龙族怒族自治县","zipcode":"673100"},{"name":"兰坪白族普米族自治县","zipcode":"673100"},{"name":"泸水县","zipcode":"673100"},{"name":"其他","zipcode":"673100"}]},{"name":"普洱市","district":[{"name":"江城哈尼族彝族自治县","zipcode":"665000"},{"name":"景东彝族自治县","zipcode":"665000"},{"name":"景谷傣族彝族自治县","zipcode":"665000"},{"name":"澜沧拉祜族自治县","zipcode":"665000"},{"name":"孟连傣族拉祜族佤族自治县","zipcode":"665000"},{"name":"墨江哈尼族自治县","zipcode":"665000"},{"name":"宁洱哈尼族彝族自治县","zipcode":"665000"},{"name":"思茅区","zipcode":"665000"},{"name":"西盟佤族自治县","zipcode":"665000"},{"name":"镇沅彝族哈尼族拉祜族自治县","zipcode":"665000"},{"name":"其他","zipcode":"665000"}]},{"name":"曲靖市","district":[{"name":"富源县","zipcode":"655000"},{"name":"会泽县","zipcode":"655000"},{"name":"陆良县","zipcode":"655000"},{"name":"罗平县","zipcode":"655000"},{"name":"马龙县","zipcode":"655000"},{"name":"麒麟区","zipcode":"655000"},{"name":"师宗县","zipcode":"655000"},{"name":"宣威市","zipcode":"655000"},{"name":"沾益县","zipcode":"655000"},{"name":"其他","zipcode":"655000"}]},{"name":"文山壮族苗族自治州","district":[{"name":"富宁县","zipcode":"663000"},{"name":"广南县","zipcode":"663000"},{"name":"麻栗坡县","zipcode":"663000"},{"name":"马关县","zipcode":"663000"},{"name":"丘北县","zipcode":"663000"},{"name":"文山县","zipcode":"663000"},{"name":"西畴县","zipcode":"663000"},{"name":"砚山县","zipcode":"663000"},{"name":"其他","zipcode":"663000"}]},{"name":"西双版纳傣族自治州","district":[{"name":"景洪市","zipcode":"666100"},{"name":"勐海县","zipcode":"666100"},{"name":"勐腊县","zipcode":"666100"},{"name":"其他","zipcode":"666100"}]},{"name":"玉溪市","district":[{"name":"澄江县","zipcode":"653100"},{"name":"峨山彝族自治县","zipcode":"653100"},{"name":"红塔区","zipcode":"653100"},{"name":"华宁县","zipcode":"653100"},{"name":"江川县","zipcode":"653100"},{"name":"通海县","zipcode":"653100"},{"name":"新平彝族傣族自治县","zipcode":"653100"},{"name":"易门县","zipcode":"653100"},{"name":"元江哈尼族彝族傣族自治县","zipcode":"653100"},{"name":"其他","zipcode":"653100"}]},{"name":"昭通市","district":[{"name":"大关县","zipcode":"657000"},{"name":"鲁甸县","zipcode":"657000"},{"name":"巧家县","zipcode":"657000"},{"name":"水富县","zipcode":"657000"},{"name":"绥江县","zipcode":"657000"},{"name":"威信县","zipcode":"657000"},{"name":"盐津县","zipcode":"657000"},{"name":"彝良县","zipcode":"657000"},{"name":"永善县","zipcode":"657000"},{"name":"昭阳区","zipcode":"657000"},{"name":"镇雄县","zipcode":"657000"},{"name":"其他","zipcode":"657000"}]}]}