{"code":0,"data":[{"name":"阿拉善盟","district":[{"name":"阿拉善右旗","zipcode":"750300"},{"name":"阿拉善左旗","zipcode":"750300"},{"name":"额济纳旗","zipcode":"750300"},{"name":"其他","zipcode":"750300"}]},{"name":"巴彦淖尔市","district":[{"name":"磴口县","zipcode":"014400"},{"name":"杭锦后旗","zipcode":"014400"},{"name":"临河区","zipcode":"014400"},{"name":"乌拉特后旗","zipcode":"014400"},{"name":"乌拉特前旗","zipcode":"014400"},{"name":"乌拉特中旗","zipcode":"014400"},{"name":"五原县","zipcode":"014400"},{"name":"其他","zipcode":"14400"}]},{"name":"包头市","district":[{"name":"白云鄂博矿区","zipcode":"014000"},{"name":"达尔罕茂明安联合旗","zipcode":"014000"},{"name":"东河区","zipcode":"014000"},{"name":"固阳县","zipcode":"014000"},{"name":"九原区","zipcode":"014000"},{"name":"昆都仑区","zipcode":"014000"},{"name":"青山区","zipcode":"014000"},{"name":"石拐区","zipcode":"014000"},{"name":"土默特右旗","zipcode":"014000"},{"name":"其他","zipcode":"14000"}]},{"name":"赤峰市","district":[{"name":"阿鲁科尔沁旗","zipcode":"024000"},{"name":"敖汉旗","zipcode":"024000"},{"name":"巴林右旗","zipcode":"024000"},{"name":"巴林左旗","zipcode":"024000"},{"name":"红山区","zipcode":"024000"},{"name":"喀喇沁旗","zipcode":"024000"},{"name":"克什克腾旗","zipcode":"024000"},{"name":"林西县","zipcode":"024000"},{"name":"宁城县","zipcode":"024000"},{"name":"松山区","zipcode":"024000"},{"name":"翁牛特旗","zipcode":"024000"},{"name":"元宝山区","zipcode":"024000"},{"name":"其他","zipcode":"24000"}]},{"name":"鄂尔多斯市","district":[{"name":"达拉特旗","zipcode":"010300"},{"name":"东胜区","zipcode":"010300"},{"name":"鄂托克旗","zipcode":"010300"},{"name":"鄂托克前旗","zipcode":"010300"},{"name":"杭锦旗","zipcode":"010300"},{"name":"乌审旗","zipcode":"010300"},{"name":"伊金霍洛旗","zipcode":"010300"},{"name":"准格尔旗","zipcode":"010300"},{"name":"其他","zipcode":"10300"}]},{"name":"呼和浩特市","district":[{"name":"和林格尔县","zipcode":"010000"},{"name":"回民区","zipcode":"010000"},{"name":"清水河县","zipcode":"010000"},{"name":"赛罕区","zipcode":"010000"},{"name":"土默特左旗","zipcode":"010000"},{"name":"托克托县","zipcode":"010000"},{"name":"武川县","zipcode":"010000"},{"name":"新城区","zipcode":"010000"},{"name":"玉泉区","zipcode":"010000"},{"name":"其他","zipcode":"10000"}]},{"name":"呼伦贝尔市","district":[{"name":"阿荣旗","zipcode":"021000"},{"name":"陈巴尔虎旗","zipcode":"021000"},{"name":"额尔古纳市","zipcode":"021000"},{"name":"鄂伦春自治旗","zipcode":"021000"},{"name":"鄂温克族自治旗","zipcode":"021000"},{"name":"根河市","zipcode":"021000"},{"name":"海拉尔区","zipcode":"021000"},{"name":"满洲里市","zipcode":"021000"},{"name":"莫力达瓦达斡尔族自治旗","zipcode":"021000"},{"name":"新巴尔虎右旗","zipcode":"021000"},{"name":"新巴尔虎左旗","zipcode":"021000"},{"name":"牙克石市","zipcode":"021000"},{"name":"扎兰屯市","zipcode":"021000"},{"name":"其他","zipcode":"21000"}]},{"name":"通辽市","district":[{"name":"霍林郭勒市","zipcode":"028000"},{"name":"开鲁县","zipcode":"028000"},{"name":"科尔沁区","zipcode":"028000"},{"name":"科尔沁左翼后旗","zipcode":"028000"},{"name":"科尔沁左翼中旗","zipcode":"028000"},{"name":"库伦旗","zipcode":"028000"},{"name":"奈曼旗","zipcode":"028000"},{"name":"扎鲁特旗","zipcode":"028000"},{"name":"其他","zipcode":"28000"}]},{"name":"乌海市","district":[{"name":"海勃湾区","zipcode":"016000"},{"name":"海南区","zipcode":"016000"},{"name":"乌达区","zipcode":"016000"},{"name":"其他","zipcode":"16000"}]},{"name":"乌兰察布市","district":[{"name":"察哈尔右翼后旗","zipcode":"012000"},{"name":"察哈尔右翼前旗","zipcode":"012000"},{"name":"察哈尔右翼中旗","zipcode":"012000"},{"name":"丰镇市","zipcode":"012000"},{"name":"化德县","zipcode":"012000"},{"name":"集宁区","zipcode":"012000"},{"name":"凉城县","zipcode":"012000"},{"name":"商都县","zipcode":"012000"},{"name":"四子王旗","zipcode":"012000"},{"name":"兴和县","zipcode":"012000"},{"name":"卓资县","zipcode":"012000"},{"name":"其他","zipcode":"12000"}]},{"name":"锡林郭勒盟","district":[{"name":"阿巴嘎旗","zipcode":"011100"},{"name":"东乌珠穆沁旗","zipcode":"011100"},{"name":"多伦县","zipcode":"011100"},{"name":"二连浩特市","zipcode":"011100"},{"name":"苏尼特右旗","zipcode":"011100"},{"name":"苏尼特左旗","zipcode":"011100"},{"name":"太仆寺旗","zipcode":"011100"},{"name":"西乌珠穆沁旗","zipcode":"011100"},{"name":"锡林浩特市","zipcode":"011100"},{"name":"镶黄旗","zipcode":"011100"},{"name":"正蓝旗","zipcode":"011100"},{"name":"正镶白旗","zipcode":"011100"},{"name":"其他","zipcode":"11100"}]},{"name":"兴安盟","district":[{"name":"阿尔山市","zipcode":"137400"},{"name":"科尔沁右翼前旗","zipcode":"137400"},{"name":"科尔沁右翼中旗","zipcode":"137400"},{"name":"突泉县","zipcode":"137400"},{"name":"乌兰浩特市","zipcode":"137400"},{"name":"扎赉特旗","zipcode":"137400"},{"name":"其他","zipcode":"137400"}]}]}