{"code":0,"data":[{"name":"白城市","district":[{"name":"大安市","zipcode":"137000"},{"name":"洮北区","zipcode":"137000"},{"name":"洮南市","zipcode":"137000"},{"name":"通榆县","zipcode":"137000"},{"name":"镇赉县","zipcode":"137000"},{"name":"其他","zipcode":"137000"}]},{"name":"白山市","district":[{"name":"八道江区","zipcode":"134300"},{"name":"长白朝鲜族自治县","zipcode":"134300"},{"name":"抚松县","zipcode":"134300"},{"name":"江源区","zipcode":"134300"},{"name":"靖宇县","zipcode":"134300"},{"name":"临江市","zipcode":"134300"},{"name":"其他","zipcode":"134300"}]},{"name":"长春市","district":[{"name":"朝阳区","zipcode":"130000"},{"name":"德惠市","zipcode":"130000"},{"name":"二道区","zipcode":"130000"},{"name":"九台市","zipcode":"130000"},{"name":"宽城区","zipcode":"130000"},{"name":"绿园区","zipcode":"130000"},{"name":"南关区","zipcode":"130000"},{"name":"农安县","zipcode":"130000"},{"name":"双阳区","zipcode":"130000"},{"name":"榆树市","zipcode":"130000"},{"name":"其他","zipcode":"130000"}]},{"name":"吉林市","district":[{"name":"昌邑区","zipcode":"132000"},{"name":"船营区","zipcode":"132000"},{"name":"丰满区","zipcode":"132000"},{"name":"桦甸市","zipcode":"132000"},{"name":"蛟河市","zipcode":"132000"},{"name":"龙潭区","zipcode":"132000"},{"name":"磐石市","zipcode":"132000"},{"name":"舒兰市","zipcode":"132000"},{"name":"永吉县","zipcode":"132000"},{"name":"其他","zipcode":"132000"}]},{"name":"辽源市","district":[{"name":"东丰县","zipcode":"136200"},{"name":"东辽县","zipcode":"136200"},{"name":"龙山区","zipcode":"136200"},{"name":"西安区","zipcode":"136200"},{"name":"其他","zipcode":"136200"}]},{"name":"四平市","district":[{"name":"公主岭市","zipcode":"136000"},{"name":"梨树县","zipcode":"136000"},{"name":"双辽市","zipcode":"136000"},{"name":"铁东区","zipcode":"136000"},{"name":"铁西区","zipcode":"136000"},{"name":"伊通满族自治县","zipcode":"136000"},{"name":"其他","zipcode":"136000"}]},{"name":"松原市","district":[{"name":"长岭县","zipcode":"131100"},{"name":"扶余县","zipcode":"131100"},{"name":"宁江区","zipcode":"131100"},{"name":"前郭尔罗斯蒙古族自治县","zipcode":"131100"},{"name":"乾安县","zipcode":"131100"},{"name":"其他","zipcode":"131100"}]},{"name":"通化市","district":[{"name":"东昌区","zipcode":"134000"},{"name":"二道江区","zipcode":"134000"},{"name":"辉南县","zipcode":"134000"},{"name":"集安市","zipcode":"134000"},{"name":"柳河县","zipcode":"134000"},{"name":"梅河口市","zipcode":"134000"},{"name":"通化县","zipcode":"134000"},{"name":"其他","zipcode":"134000"}]},{"name":"延边朝鲜族自治州","district":[{"name":"安图县","zipcode":"133000"},{"name":"敦化市","zipcode":"133000"},{"name":"和龙市","zipcode":"133000"},{"name":"珲春市","zipcode":"133000"},{"name":"龙井市","zipcode":"133000"},{"name":"图们市","zipcode":"133000"},{"name":"汪清县","zipcode":"133000"},{"name":"延吉市","zipcode":"133000"},{"name":"其他","zipcode":"133000"}]}]}