{"code":0,"data":[{"name":"阿坝藏族羌族自治州","district":[{"name":"阿坝县","zipcode":"624000"},{"name":"黑水县","zipcode":"624000"},{"name":"红原县","zipcode":"624000"},{"name":"金川县","zipcode":"624000"},{"name":"九寨沟县","zipcode":"624000"},{"name":"理县","zipcode":"624000"},{"name":"马尔康县","zipcode":"624000"},{"name":"茂县","zipcode":"624000"},{"name":"壤塘县","zipcode":"624000"},{"name":"若尔盖县","zipcode":"624000"},{"name":"松潘县","zipcode":"624000"},{"name":"汶川县","zipcode":"624000"},{"name":"小金县","zipcode":"624000"},{"name":"其他","zipcode":"624000"}]},{"name":"巴中市","district":[{"name":"巴州区","zipcode":"636600"},{"name":"南江县","zipcode":"636600"},{"name":"平昌县","zipcode":"636600"},{"name":"通江县","zipcode":"636600"},{"name":"其他","zipcode":"636600"}]},{"name":"成都市","district":[{"name":"成华区","zipcode":"610000"},{"name":"崇州市","zipcode":"610000"},{"name":"大邑县","zipcode":"610000"},{"name":"都江堰市","zipcode":"610000"},{"name":"金牛区","zipcode":"610000"},{"name":"金堂县","zipcode":"610000"},{"name":"锦江区","zipcode":"610000"},{"name":"龙泉驿区","zipcode":"610000"},{"name":"彭州市","zipcode":"610000"},{"name":"郫县","zipcode":"610000"},{"name":"蒲江县","zipcode":"610000"},{"name":"青白江区","zipcode":"610000"},{"name":"青羊区","zipcode":"610000"},{"name":"邛崃市","zipcode":"610000"},{"name":"双流县","zipcode":"610000"},{"name":"温江区","zipcode":"610000"},{"name":"武侯区","zipcode":"610000"},{"name":"新都区","zipcode":"610000"},{"name":"新津县","zipcode":"610000"},{"name":"其他","zipcode":"610000"}]},{"name":"达州市","district":[{"name":"达县","zipcode":"635000"},{"name":"大竹县","zipcode":"635000"},{"name":"开江县","zipcode":"635000"},{"name":"渠县","zipcode":"635000"},{"name":"通川区","zipcode":"635000"},{"name":"万源市","zipcode":"635000"},{"name":"宣汉县","zipcode":"635000"},{"name":"其他","zipcode":"635000"}]},{"name":"德阳市","district":[{"name":"广汉市","zipcode":"618000"},{"name":"旌阳区","zipcode":"618000"},{"name":"罗江县","zipcode":"618000"},{"name":"绵竹市","zipcode":"618000"},{"name":"什邡市","zipcode":"618000"},{"name":"中江县","zipcode":"618000"},{"name":"其他","zipcode":"618000"}]},{"name":"甘孜藏族自治州","district":[{"name":"巴塘县","zipcode":"626000"},{"name":"白玉县","zipcode":"626000"},{"name":"丹巴县","zipcode":"626000"},{"name":"道孚县","zipcode":"626000"},{"name":"稻城县","zipcode":"626000"},{"name":"得荣县","zipcode":"626000"},{"name":"德格县","zipcode":"626000"},{"name":"甘孜县","zipcode":"626000"},{"name":"九龙县","zipcode":"626000"},{"name":"康定县","zipcode":"626000"},{"name":"理塘县","zipcode":"626000"},{"name":"泸定县","zipcode":"626000"},{"name":"炉霍县","zipcode":"626000"},{"name":"色达县","zipcode":"626000"},{"name":"石渠县","zipcode":"626000"},{"name":"乡城县","zipcode":"626000"},{"name":"新龙县","zipcode":"626000"},{"name":"雅江县","zipcode":"626000"},{"name":"其他","zipcode":"626000"}]},{"name":"广安市","district":[{"name":"广安区","zipcode":"638500"},{"name":"华蓥市","zipcode":"638500"},{"name":"邻水县","zipcode":"638500"},{"name":"武胜县","zipcode":"638500"},{"name":"岳池县","zipcode":"638500"},{"name":"其他","zipcode":"638500"}]},{"name":"广元市","district":[{"name":"苍溪县","zipcode":"628000"},{"name":"朝天区","zipcode":"628000"},{"name":"剑阁县","zipcode":"628000"},{"name":"利州区","zipcode":"628000"},{"name":"青川县","zipcode":"628000"},{"name":"旺苍县","zipcode":"628000"},{"name":"元坝区","zipcode":"628000"},{"name":"其他","zipcode":"628000"}]},{"name":"乐山市","district":[{"name":"峨边彝族自治县","zipcode":"614000"},{"name":"峨眉山市","zipcode":"614000"},{"name":"夹江县","zipcode":"614000"},{"name":"犍为县","zipcode":"614000"},{"name":"金口河区","zipcode":"614000"},{"name":"井研县","zipcode":"614000"},{"name":"马边彝族自治县","zipcode":"614000"},{"name":"沐川县","zipcode":"614000"},{"name":"沙湾区","zipcode":"614000"},{"name":"市中区","zipcode":"614000"},{"name":"五通桥区","zipcode":"614000"},{"name":"其他","zipcode":"614000"}]},{"name":"凉山彝族自治州","district":[{"name":"布拖县","zipcode":"615000"},{"name":"德昌县","zipcode":"615000"},{"name":"甘洛县","zipcode":"615000"},{"name":"会东县","zipcode":"615000"},{"name":"会理县","zipcode":"615000"},{"name":"金阳县","zipcode":"615000"},{"name":"雷波县","zipcode":"615000"},{"name":"美姑县","zipcode":"615000"},{"name":"冕宁县","zipcode":"615000"},{"name":"木里藏族自治县","zipcode":"615000"},{"name":"宁南县","zipcode":"615000"},{"name":"普格县","zipcode":"615000"},{"name":"西昌市","zipcode":"615000"},{"name":"喜德县","zipcode":"615000"},{"name":"盐源县","zipcode":"615000"},{"name":"越西县","zipcode":"615000"},{"name":"昭觉县","zipcode":"615000"},{"name":"其他","zipcode":"615000"}]},{"name":"泸州市","district":[{"name":"古蔺县","zipcode":"646000"},{"name":"合江县","zipcode":"646000"},{"name":"江阳区","zipcode":"646000"},{"name":"龙马潭区","zipcode":"646000"},{"name":"泸县","zipcode":"646000"},{"name":"纳溪区","zipcode":"646000"},{"name":"叙永县","zipcode":"646000"},{"name":"其他","zipcode":"646000"}]},{"name":"眉山市","district":[{"name":"丹棱县","zipcode":"620000"},{"name":"东坡区","zipcode":"620000"},{"name":"洪雅县","zipcode":"620000"},{"name":"彭山县","zipcode":"620000"},{"name":"青神县","zipcode":"620000"},{"name":"仁寿县","zipcode":"620000"},{"name":"其他","zipcode":"620000"}]},{"name":"绵阳市","district":[{"name":"安县","zipcode":"621000"},{"name":"北川羌族自治县","zipcode":"621000"},{"name":"涪城区","zipcode":"621000"},{"name":"江油市","zipcode":"621000"},{"name":"平武县","zipcode":"621000"},{"name":"三台县","zipcode":"621000"},{"name":"盐亭县","zipcode":"621000"},{"name":"游仙区","zipcode":"621000"},{"name":"梓潼县","zipcode":"621000"},{"name":"其他","zipcode":"621000"}]},{"name":"内江市","district":[{"name":"东兴区","zipcode":"641000"},{"name":"隆昌县","zipcode":"641000"},{"name":"市中区","zipcode":"641000"},{"name":"威远县","zipcode":"641000"},{"name":"资中县","zipcode":"641000"},{"name":"其他","zipcode":"641000"}]},{"name":"南充市","district":[{"name":"高坪区","zipcode":"637000"},{"name":"嘉陵区","zipcode":"637000"},{"name":"阆中市","zipcode":"637000"},{"name":"南部县","zipcode":"637000"},{"name":"蓬安县","zipcode":"637000"},{"name":"顺庆区","zipcode":"637000"},{"name":"西充县","zipcode":"637000"},{"name":"仪陇县","zipcode":"637000"},{"name":"营山县","zipcode":"637000"},{"name":"其他","zipcode":"637000"}]},{"name":"攀枝花市","district":[{"name":"东区","zipcode":"617000"},{"name":"米易县","zipcode":"617000"},{"name":"仁和区","zipcode":"617000"},{"name":"西区","zipcode":"617000"},{"name":"盐边县","zipcode":"617000"},{"name":"其他","zipcode":"617000"}]},{"name":"遂宁市","district":[{"name":"安居区","zipcode":"629000"},{"name":"船山区","zipcode":"629000"},{"name":"大英县","zipcode":"629000"},{"name":"蓬溪县","zipcode":"629000"},{"name":"射洪县","zipcode":"629000"},{"name":"其他","zipcode":"629000"}]},{"name":"雅安市","district":[{"name":"宝兴县","zipcode":"625000"},{"name":"汉源县","zipcode":"625000"},{"name":"芦山县","zipcode":"625000"},{"name":"名山县","zipcode":"625000"},{"name":"石棉县","zipcode":"625000"},{"name":"天全县","zipcode":"625000"},{"name":"荥经县","zipcode":"625000"},{"name":"雨城区","zipcode":"625000"},{"name":"其他","zipcode":"625000"}]},{"name":"宜宾市","district":[{"name":"长宁县","zipcode":"644000"},{"name":"翠屏区","zipcode":"644000"},{"name":"高县","zipcode":"644000"},{"name":"珙县","zipcode":"644000"},{"name":"江安县","zipcode":"644000"},{"name":"筠连县","zipcode":"644000"},{"name":"南溪县","zipcode":"644000"},{"name":"屏山县","zipcode":"644000"},{"name":"兴文县","zipcode":"644000"},{"name":"宜宾县","zipcode":"644000"},{"name":"其他","zipcode":"644000"}]},{"name":"资阳市","district":[{"name":"安岳县","zipcode":"641300"},{"name":"简阳市","zipcode":"641300"},{"name":"乐至县","zipcode":"641300"},{"name":"雁江区","zipcode":"641300"},{"name":"其他","zipcode":"641300"}]},{"name":"自贡市","district":[{"name":"大安区","zipcode":"643000"},{"name":"富顺县","zipcode":"643000"},{"name":"贡井区","zipcode":"643000"},{"name":"荣县","zipcode":"643000"},{"name":"沿滩区","zipcode":"643000"},{"name":"自流井区","zipcode":"643000"},{"name":"其他","zipcode":"643000"}]}]}