{"code":0,"data":[{"name":"固原市","district":[{"name":"泾源县","zipcode":"756000"},{"name":"隆德县","zipcode":"756000"},{"name":"彭阳县","zipcode":"756000"},{"name":"西吉县","zipcode":"756000"},{"name":"原州区","zipcode":"756000"},{"name":"其他","zipcode":"756000"}]},{"name":"石嘴山市","district":[{"name":"大武口区","zipcode":"753000"},{"name":"惠农区","zipcode":"753000"},{"name":"平罗县","zipcode":"753000"},{"name":"其他","zipcode":"753000"}]},{"name":"吴忠市","district":[{"name":"利通区","zipcode":"751100"},{"name":"青铜峡市","zipcode":"751100"},{"name":"同心县","zipcode":"751100"},{"name":"盐池县","zipcode":"751100"},{"name":"其他","zipcode":"751100"}]},{"name":"银川市","district":[{"name":"贺兰县","zipcode":"750000"},{"name":"金凤区","zipcode":"750000"},{"name":"灵武市","zipcode":"750000"},{"name":"西夏区","zipcode":"750000"},{"name":"兴庆区","zipcode":"750000"},{"name":"永宁县","zipcode":"750000"},{"name":"其他","zipcode":"750000"}]},{"name":"中卫市","district":[{"name":"海原县","zipcode":"751700"},{"name":"沙坡头区","zipcode":"751700"},{"name":"中宁县","zipcode":"751700"},{"name":"其他","zipcode":"751700"}]}]}