{"code":0,"data":[{"name":"滨州市","district":[{"name":"滨城区","zipcode":"256600"},{"name":"博兴县","zipcode":"256600"},{"name":"惠民县","zipcode":"256600"},{"name":"无棣县","zipcode":"256600"},{"name":"阳信县","zipcode":"256600"},{"name":"沾化县","zipcode":"256600"},{"name":"邹平县","zipcode":"256600"},{"name":"其他","zipcode":"256600"}]},{"name":"德州市","district":[{"name":"德城区","zipcode":"253000"},{"name":"乐陵市","zipcode":"253000"},{"name":"临邑县","zipcode":"253000"},{"name":"陵县","zipcode":"253000"},{"name":"宁津县","zipcode":"253000"},{"name":"平原县","zipcode":"253000"},{"name":"齐河县","zipcode":"253000"},{"name":"庆云县","zipcode":"253000"},{"name":"武城县","zipcode":"253000"},{"name":"夏津县","zipcode":"253000"},{"name":"禹城市","zipcode":"253000"},{"name":"其他","zipcode":"253000"}]},{"name":"东营市","district":[{"name":"东营区","zipcode":"257000"},{"name":"广饶县","zipcode":"257000"},{"name":"河口区","zipcode":"257000"},{"name":"垦利县","zipcode":"257000"},{"name":"利津县","zipcode":"257000"},{"name":"其他","zipcode":"257000"}]},{"name":"菏泽市","district":[{"name":"曹县","zipcode":"274000"},{"name":"成武县","zipcode":"274000"},{"name":"单县","zipcode":"274000"},{"name":"定陶县","zipcode":"274000"},{"name":"东明县","zipcode":"274000"},{"name":"巨野县","zipcode":"274000"},{"name":"鄄城县","zipcode":"274000"},{"name":"牡丹区","zipcode":"274000"},{"name":"郓城县","zipcode":"274000"},{"name":"其他","zipcode":"274000"}]},{"name":"济南市","district":[{"name":"长清区","zipcode":"250000"},{"name":"槐荫区","zipcode":"250000"},{"name":"济阳县","zipcode":"250000"},{"name":"历城区","zipcode":"250000"},{"name":"历下区","zipcode":"250000"},{"name":"平阴县","zipcode":"250000"},{"name":"商河县","zipcode":"250000"},{"name":"市中区","zipcode":"250000"},{"name":"天桥区","zipcode":"250000"},{"name":"章丘市","zipcode":"250000"},{"name":"其他","zipcode":"250000"}]},{"name":"济宁市","district":[{"name":"嘉祥县","zipcode":"272100"},{"name":"金乡县","zipcode":"272100"},{"name":"梁山县","zipcode":"272100"},{"name":"曲阜市","zipcode":"272100"},{"name":"任城区","zipcode":"272100"},{"name":"市中区","zipcode":"272100"},{"name":"泗水县","zipcode":"272100"},{"name":"微山县","zipcode":"272100"},{"name":"汶上县","zipcode":"272100"},{"name":"兖州市","zipcode":"272100"},{"name":"鱼台县","zipcode":"272100"},{"name":"邹城市","zipcode":"272100"},{"name":"其他","zipcode":"272100"}]},{"name":"莱芜市","district":[{"name":"钢城区","zipcode":"271100"},{"name":"莱城区","zipcode":"271100"},{"name":"其他","zipcode":"271100"}]},{"name":"聊城市","district":[{"name":"茌平县","zipcode":"252000"},{"name":"东阿县","zipcode":"252000"},{"name":"东昌府区","zipcode":"252000"},{"name":"高唐县","zipcode":"252000"},{"name":"冠县","zipcode":"252000"},{"name":"临清市","zipcode":"252000"},{"name":"莘县","zipcode":"252000"},{"name":"阳谷县","zipcode":"252000"},{"name":"其他","zipcode":"252000"}]},{"name":"临沂市","district":[{"name":"苍山县","zipcode":"276000"},{"name":"费县","zipcode":"276000"},{"name":"河东区","zipcode":"276000"},{"name":"莒南县","zipcode":"276000"},{"name":"兰山区","zipcode":"276000"},{"name":"临沭县","zipcode":"276000"},{"name":"罗庄区","zipcode":"276000"},{"name":"蒙阴县","zipcode":"276000"},{"name":"平邑县","zipcode":"276000"},{"name":"郯城县","zipcode":"276000"},{"name":"沂南县","zipcode":"276000"},{"name":"沂水县","zipcode":"276000"},{"name":"其他","zipcode":"276000"}]},{"name":"青岛市","district":[{"name":"城阳区","zipcode":"266000"},{"name":"黄岛区","zipcode":"266000"},{"name":"即墨市","zipcode":"266000"},{"name":"胶南市","zipcode":"266000"},{"name":"胶州市","zipcode":"266000"},{"name":"莱西市","zipcode":"266000"},{"name":"崂山区","zipcode":"266000"},{"name":"李沧区","zipcode":"266000"},{"name":"平度市","zipcode":"266000"},{"name":"市北区","zipcode":"266000"},{"name":"市南区","zipcode":"266000"},{"name":"四方区","zipcode":"266000"},{"name":"其他","zipcode":"266000"}]},{"name":"日照市","district":[{"name":"东港区","zipcode":"276800"},{"name":"莒县","zipcode":"276800"},{"name":"岚山区","zipcode":"276800"},{"name":"五莲县","zipcode":"276800"},{"name":"其他","zipcode":"276800"}]},{"name":"泰安市","district":[{"name":"岱岳区","zipcode":"271000"},{"name":"东平县","zipcode":"271000"},{"name":"肥城市","zipcode":"271000"},{"name":"宁阳县","zipcode":"271000"},{"name":"泰山区","zipcode":"271000"},{"name":"新泰市","zipcode":"271000"},{"name":"其他","zipcode":"271000"}]},{"name":"威海市","district":[{"name":"环翠区","zipcode":"265700"},{"name":"荣成市","zipcode":"265700"},{"name":"乳山市","zipcode":"265700"},{"name":"文登市","zipcode":"265700"},{"name":"其他","zipcode":"265700"}]},{"name":"潍坊市","district":[{"name":"安丘市","zipcode":"261000"},{"name":"昌乐县","zipcode":"261000"},{"name":"昌邑市","zipcode":"261000"},{"name":"坊子区","zipcode":"261000"},{"name":"高密市","zipcode":"261000"},{"name":"寒亭区","zipcode":"261000"},{"name":"奎文区","zipcode":"261000"},{"name":"临朐县","zipcode":"261000"},{"name":"青州市","zipcode":"261000"},{"name":"寿光市","zipcode":"261000"},{"name":"潍城区","zipcode":"261000"},{"name":"诸城市","zipcode":"261000"},{"name":"其他","zipcode":"261000"}]},{"name":"烟台市","district":[{"name":"长岛县","zipcode":"264000"},{"name":"福山区","zipcode":"264000"},{"name":"海阳市","zipcode":"264000"},{"name":"开发区","zipcode":"264000"},{"name":"莱山区","zipcode":"264000"},{"name":"莱阳市","zipcode":"264000"},{"name":"莱州市","zipcode":"264000"},{"name":"龙口市","zipcode":"264000"},{"name":"牟平区","zipcode":"264000"},{"name":"蓬莱市","zipcode":"264000"},{"name":"栖霞市","zipcode":"264000"},{"name":"招远市","zipcode":"264000"},{"name":"芝罘区","zipcode":"264000"},{"name":"其他","zipcode":"264000"}]},{"name":"枣庄市","district":[{"name":"山亭区","zipcode":"277100"},{"name":"市中区","zipcode":"277100"},{"name":"台儿庄区","zipcode":"277100"},{"name":"滕州市","zipcode":"277100"},{"name":"薛城区","zipcode":"277100"},{"name":"峄城区","zipcode":"277100"},{"name":"其他","zipcode":"277100"}]},{"name":"淄博市","district":[{"name":"博山区","zipcode":"255000"},{"name":"高青县","zipcode":"255000"},{"name":"桓台县","zipcode":"255000"},{"name":"临淄区","zipcode":"255000"},{"name":"沂源县","zipcode":"255000"},{"name":"张店区","zipcode":"255000"},{"name":"周村区","zipcode":"255000"},{"name":"淄川区","zipcode":"255000"},{"name":"其他","zipcode":"255000"}]}]}