{"code":0,"data":[{"name":"长治市","district":[{"name":"长治县","zipcode":"046000"},{"name":"长子县","zipcode":"046000"},{"name":"城区","zipcode":"046000"},{"name":"壶关县","zipcode":"046000"},{"name":"郊区","zipcode":"046000"},{"name":"黎城县","zipcode":"046000"},{"name":"潞城市","zipcode":"046000"},{"name":"平顺县","zipcode":"046000"},{"name":"沁县","zipcode":"046000"},{"name":"沁源县","zipcode":"046000"},{"name":"屯留县","zipcode":"046000"},{"name":"武乡县","zipcode":"046000"},{"name":"襄垣县","zipcode":"046000"},{"name":"其他","zipcode":"46000"}]},{"name":"大同市","district":[{"name":"城区","zipcode":"037000"},{"name":"大同县","zipcode":"037000"},{"name":"广灵县","zipcode":"037000"},{"name":"浑源县","zipcode":"037000"},{"name":"矿区","zipcode":"037000"},{"name":"灵丘县","zipcode":"037000"},{"name":"南郊区","zipcode":"037000"},{"name":"天镇县","zipcode":"037000"},{"name":"新荣区","zipcode":"037000"},{"name":"阳高县","zipcode":"037000"},{"name":"左云县","zipcode":"037000"},{"name":"其他","zipcode":"37000"}]},{"name":"晋城市","district":[{"name":"城区","zipcode":"048000"},{"name":"高平市","zipcode":"048000"},{"name":"陵川县","zipcode":"048000"},{"name":"沁水县","zipcode":"048000"},{"name":"阳城县","zipcode":"048000"},{"name":"泽州县","zipcode":"048000"},{"name":"其他","zipcode":"48000"}]},{"name":"晋中市","district":[{"name":"和顺县","zipcode":"030600"},{"name":"介休市","zipcode":"030600"},{"name":"灵石县","zipcode":"030600"},{"name":"平遥县","zipcode":"030600"},{"name":"祁县","zipcode":"030600"},{"name":"寿阳县","zipcode":"030600"},{"name":"太谷县","zipcode":"030600"},{"name":"昔阳县","zipcode":"030600"},{"name":"榆次区","zipcode":"030600"},{"name":"榆社县","zipcode":"030600"},{"name":"左权县","zipcode":"030600"},{"name":"其他","zipcode":"30600"}]},{"name":"临汾市","district":[{"name":"安泽县","zipcode":"041000"},{"name":"大宁县","zipcode":"041000"},{"name":"汾西县","zipcode":"041000"},{"name":"浮山县","zipcode":"041000"},{"name":"古县","zipcode":"041000"},{"name":"洪洞县","zipcode":"041000"},{"name":"侯马市","zipcode":"041000"},{"name":"霍州市","zipcode":"041000"},{"name":"吉县","zipcode":"041000"},{"name":"蒲县","zipcode":"041000"},{"name":"曲沃县","zipcode":"041000"},{"name":"隰县","zipcode":"041000"},{"name":"乡宁县","zipcode":"041000"},{"name":"襄汾县","zipcode":"041000"},{"name":"尧都区","zipcode":"041000"},{"name":"翼城县","zipcode":"041000"},{"name":"永和县","zipcode":"041000"},{"name":"其他","zipcode":"41000"}]},{"name":"吕梁市","district":[{"name":"方山县","zipcode":"030500"},{"name":"汾阳市","zipcode":"030500"},{"name":"交城县","zipcode":"030500"},{"name":"交口县","zipcode":"030500"},{"name":"岚县","zipcode":"030500"},{"name":"离石区","zipcode":"030500"},{"name":"临县","zipcode":"030500"},{"name":"柳林县","zipcode":"030500"},{"name":"石楼县","zipcode":"030500"},{"name":"文水县","zipcode":"030500"},{"name":"孝义市","zipcode":"030500"},{"name":"兴县","zipcode":"030500"},{"name":"中阳县","zipcode":"030500"},{"name":"其他","zipcode":"30500"}]},{"name":"朔州市","district":[{"name":"怀仁县","zipcode":"036000"},{"name":"平鲁区","zipcode":"036000"},{"name":"山阴县","zipcode":"036000"},{"name":"朔城区","zipcode":"036000"},{"name":"应县","zipcode":"036000"},{"name":"右玉县","zipcode":"036000"},{"name":"其他","zipcode":"36000"}]},{"name":"太原市","district":[{"name":"古交市","zipcode":"030000"},{"name":"尖草坪区","zipcode":"030000"},{"name":"晋源区","zipcode":"030000"},{"name":"娄烦县","zipcode":"030000"},{"name":"清徐县","zipcode":"030000"},{"name":"万柏林区","zipcode":"030000"},{"name":"小店区","zipcode":"030000"},{"name":"杏花岭区","zipcode":"030000"},{"name":"阳曲县","zipcode":"030000"},{"name":"迎泽区","zipcode":"030000"},{"name":"其他","zipcode":"30000"}]},{"name":"忻州市","district":[{"name":"保德县","zipcode":"034000"},{"name":"代县","zipcode":"034000"},{"name":"定襄县","zipcode":"034000"},{"name":"繁峙县","zipcode":"034000"},{"name":"河曲县","zipcode":"034000"},{"name":"静乐县","zipcode":"034000"},{"name":"岢岚县","zipcode":"034000"},{"name":"宁武县","zipcode":"034000"},{"name":"偏关县","zipcode":"034000"},{"name":"神池县","zipcode":"034000"},{"name":"五台县","zipcode":"034000"},{"name":"五寨县","zipcode":"034000"},{"name":"忻府区","zipcode":"034000"},{"name":"原平市","zipcode":"034000"},{"name":"其他","zipcode":"34000"}]},{"name":"阳泉市","district":[{"name":"城区","zipcode":"045000"},{"name":"郊区","zipcode":"045000"},{"name":"矿区","zipcode":"045000"},{"name":"平定县","zipcode":"045000"},{"name":"盂县","zipcode":"045000"},{"name":"其他","zipcode":"45000"}]},{"name":"运城市","district":[{"name":"河津市","zipcode":"044000"},{"name":"稷山县","zipcode":"044000"},{"name":"绛县","zipcode":"044000"},{"name":"临猗县","zipcode":"044000"},{"name":"平陆县","zipcode":"044000"},{"name":"芮城县","zipcode":"044000"},{"name":"万荣县","zipcode":"044000"},{"name":"闻喜县","zipcode":"044000"},{"name":"夏县","zipcode":"044000"},{"name":"新绛县","zipcode":"044000"},{"name":"盐湖区","zipcode":"044000"},{"name":"永济市","zipcode":"044000"},{"name":"垣曲县","zipcode":"044000"},{"name":"其他","zipcode":"44000"}]}]}