{"code":0,"data":[{"name":"潮州市","district":[{"name":"潮安县","zipcode":"515600"},{"name":"枫溪区","zipcode":"515600"},{"name":"饶平县","zipcode":"515600"},{"name":"湘桥区","zipcode":"515600"},{"name":"其他","zipcode":"515600"}]},{"name":"佛山市","district":[{"name":"禅城区","zipcode":"517000"},{"name":"高明区","zipcode":"517000"},{"name":"南海区","zipcode":"517000"},{"name":"三水区","zipcode":"517000"},{"name":"顺德区","zipcode":"517000"},{"name":"其他","zipcode":"517000"}]},{"name":"广州市","district":[{"name":"白云区","zipcode":"510000"},{"name":"从化市","zipcode":"510000"},{"name":"东山区","zipcode":"510000"},{"name":"番禺区","zipcode":"510000"},{"name":"芳村区","zipcode":"510000"},{"name":"海珠区","zipcode":"510000"},{"name":"花都区","zipcode":"510000"},{"name":"黄埔区","zipcode":"510000"},{"name":"荔湾区","zipcode":"510000"},{"name":"萝岗区","zipcode":"510000"},{"name":"天河区","zipcode":"510000"},{"name":"越秀区","zipcode":"510000"},{"name":"增城市","zipcode":"510000"},{"name":"其他","zipcode":"510000"}]},{"name":"河源市","district":[{"name":"东源县","zipcode":"517000"},{"name":"和平县","zipcode":"517000"},{"name":"连平县","zipcode":"517000"},{"name":"龙川县","zipcode":"517000"},{"name":"源城区","zipcode":"517000"},{"name":"紫金县","zipcode":"517000"},{"name":"其他","zipcode":"517000"}]},{"name":"惠州市","district":[{"name":"博罗县","zipcode":"516000"},{"name":"惠城区","zipcode":"516000"},{"name":"惠东县","zipcode":"516000"},{"name":"惠阳区","zipcode":"516000"},{"name":"龙门县","zipcode":"516000"},{"name":"其他","zipcode":"516000"}]},{"name":"江门市","district":[{"name":"恩平市","zipcode":"529000"},{"name":"鹤山市","zipcode":"529000"},{"name":"江海区","zipcode":"529000"},{"name":"开平市","zipcode":"529000"},{"name":"蓬江区","zipcode":"529000"},{"name":"台山市","zipcode":"529000"},{"name":"新会区","zipcode":"529000"},{"name":"其他","zipcode":"529000"}]},{"name":"揭阳市","district":[{"name":"东山区","zipcode":"522000"},{"name":"惠来县","zipcode":"522000"},{"name":"揭东县","zipcode":"522000"},{"name":"揭西县","zipcode":"522000"},{"name":"经济开发试验区","zipcode":"522000"},{"name":"普宁市","zipcode":"522000"},{"name":"榕城区","zipcode":"522000"},{"name":"其他","zipcode":"522000"}]},{"name":"茂名市","district":[{"name":"电白县","zipcode":"525000"},{"name":"高州市","zipcode":"525000"},{"name":"化州市","zipcode":"525000"},{"name":"茂港区","zipcode":"525000"},{"name":"茂南区","zipcode":"525000"},{"name":"信宜市","zipcode":"525000"},{"name":"其他","zipcode":"525000"}]},{"name":"梅州市","district":[{"name":"大埔县","zipcode":"514000"},{"name":"丰顺县","zipcode":"514000"},{"name":"蕉岭县","zipcode":"514000"},{"name":"梅江区","zipcode":"514000"},{"name":"梅县","zipcode":"514000"},{"name":"平远县","zipcode":"514000"},{"name":"五华县","zipcode":"514000"},{"name":"兴宁市","zipcode":"514000"},{"name":"其他","zipcode":"514000"}]},{"name":"清远市","district":[{"name":"佛冈县","zipcode":"511500"},{"name":"连南瑶族自治县","zipcode":"511500"},{"name":"连山壮族瑶族自治县","zipcode":"511500"},{"name":"连州市","zipcode":"511500"},{"name":"清城区","zipcode":"511500"},{"name":"清新县","zipcode":"511500"},{"name":"阳山县","zipcode":"511500"},{"name":"英德市","zipcode":"511500"},{"name":"其他","zipcode":"511500"}]},{"name":"汕头市","district":[{"name":"潮南区","zipcode":"515000"},{"name":"潮阳区","zipcode":"515000"},{"name":"澄海区","zipcode":"515000"},{"name":"濠江区","zipcode":"515000"},{"name":"金平区","zipcode":"515000"},{"name":"龙湖区","zipcode":"515000"},{"name":"南澳县","zipcode":"515000"},{"name":"其他","zipcode":"515000"}]},{"name":"汕尾市","district":[{"name":"城区","zipcode":"516600"},{"name":"海丰县","zipcode":"516600"},{"name":"红海湾经济开发试验区","zipcode":"516600"},{"name":"陆丰市","zipcode":"516600"},{"name":"陆河县","zipcode":"516600"},{"name":"其他","zipcode":"516600"}]},{"name":"韶关市","district":[{"name":"乐昌市","zipcode":"512000"},{"name":"南雄市","zipcode":"512000"},{"name":"曲江区","zipcode":"512000"},{"name":"仁化县","zipcode":"512000"},{"name":"乳源瑶族自治县","zipcode":"512000"},{"name":"始兴县","zipcode":"512000"},{"name":"翁源县","zipcode":"512000"},{"name":"武江区","zipcode":"512000"},{"name":"新丰县","zipcode":"512000"},{"name":"浈江区","zipcode":"512000"},{"name":"其他","zipcode":"512000"}]},{"name":"深圳市","district":[{"name":"宝安区","zipcode":"518000"},{"name":"福田区","zipcode":"518000"},{"name":"龙岗区","zipcode":"518000"},{"name":"罗湖区","zipcode":"518000"},{"name":"南山区","zipcode":"518000"},{"name":"盐田区","zipcode":"518000"},{"name":"其他","zipcode":"518000"}]},{"name":"中山市","district":{"name":"中山市","zipcode":"528400"}},{"name":"东莞市","district":{"name":"东莞市","zipcode":"523000"}},{"name":"阳江市","district":[{"name":"江城区","zipcode":"529500"},{"name":"阳春市","zipcode":"529500"},{"name":"阳东县","zipcode":"529500"},{"name":"阳西县","zipcode":"529500"},{"name":"其他","zipcode":"529500"}]},{"name":"云浮市","district":[{"name":"罗定市","zipcode":"527300"},{"name":"新兴县","zipcode":"527300"},{"name":"郁南县","zipcode":"527300"},{"name":"云安县","zipcode":"527300"},{"name":"云城区","zipcode":"527300"},{"name":"其他","zipcode":"527300"}]},{"name":"湛江市","district":[{"name":"赤坎区","zipcode":"528400"},{"name":"东海岛","zipcode":"519000"},{"name":"开发区","zipcode":"519000"},{"name":"雷州市","zipcode":"519000"},{"name":"廉江市","zipcode":"533000"},{"name":"麻章区","zipcode":"533000"},{"name":"坡头区","zipcode":"533000"},{"name":"遂溪县","zipcode":"533000"},{"name":"吴川市","zipcode":"533000"},{"name":"霞山区","zipcode":"533000"},{"name":"徐闻县","zipcode":"533000"},{"name":"其他","zipcode":"533000"}]},{"name":"肇庆市","district":[{"name":"德庆县","zipcode":"533000"},{"name":"鼎湖区","zipcode":"533000"},{"name":"端州区","zipcode":"533000"},{"name":"封开县","zipcode":"533000"},{"name":"高要市","zipcode":"533000"},{"name":"广宁县","zipcode":"536000"},{"name":"怀集县","zipcode":"536000"},{"name":"四会市","zipcode":"536000"},{"name":"其他","zipcode":"536000"}]},{"name":"珠海市","district":[{"name":"斗门区","zipcode":"519000"},{"name":"金湾区","zipcode":"519000"},{"name":"香洲区","zipcode":"519000"},{"name":"其他","zipcode":"519000"}]}]}