{"code":0,"data":[{"name":"百色市","district":[{"name":"德保县","zipcode":"533000"},{"name":"靖西县","zipcode":"533000"},{"name":"乐业县","zipcode":"533000"},{"name":"凌云县","zipcode":"533000"},{"name":"隆林各族自治县","zipcode":"533000"},{"name":"那坡县","zipcode":"533000"},{"name":"平果县","zipcode":"533000"},{"name":"田东县","zipcode":"533000"},{"name":"田林县","zipcode":"533000"},{"name":"田阳县","zipcode":"533000"},{"name":"西林县","zipcode":"533000"},{"name":"右江区","zipcode":"533000"},{"name":"其他","zipcode":"533000"}]},{"name":"北海市","district":[{"name":"海城区","zipcode":"536000"},{"name":"合浦县","zipcode":"536000"},{"name":"铁山港区","zipcode":"536000"},{"name":"银海区","zipcode":"536000"},{"name":"其他","zipcode":"536000"}]},{"name":"崇左市","district":[{"name":"大新县","zipcode":"532200"},{"name":"扶绥县","zipcode":"532200"},{"name":"江洲区","zipcode":"532200"},{"name":"龙州县","zipcode":"532200"},{"name":"宁明县","zipcode":"532200"},{"name":"凭祥市","zipcode":"532200"},{"name":"天等县","zipcode":"532200"},{"name":"其他","zipcode":"532200"}]},{"name":"防城港市","district":[{"name":"东兴市","zipcode":"538000"},{"name":"防城区","zipcode":"538000"},{"name":"港口区","zipcode":"538000"},{"name":"上思县","zipcode":"538000"},{"name":"其他","zipcode":"538000"}]},{"name":"贵港市","district":[{"name":"港北区","zipcode":"537100"},{"name":"港南区","zipcode":"537100"},{"name":"桂平市","zipcode":"537100"},{"name":"平南县","zipcode":"537100"},{"name":"覃塘区","zipcode":"537100"},{"name":"其他","zipcode":"537100"}]},{"name":"桂林市","district":[{"name":"叠彩区","zipcode":"541000"},{"name":"恭城瑶族自治县","zipcode":"541000"},{"name":"灌阳县","zipcode":"541000"},{"name":"荔蒲县","zipcode":"541000"},{"name":"临桂县","zipcode":"541000"},{"name":"灵川县","zipcode":"541000"},{"name":"龙胜各族自治县","zipcode":"541000"},{"name":"平乐县","zipcode":"541000"},{"name":"七星区","zipcode":"541000"},{"name":"全州县","zipcode":"541000"},{"name":"象山区","zipcode":"541000"},{"name":"兴安县","zipcode":"541000"},{"name":"秀峰区","zipcode":"541000"},{"name":"雁山区","zipcode":"541000"},{"name":"阳朔县","zipcode":"541000"},{"name":"永福县","zipcode":"541000"},{"name":"资源县","zipcode":"541000"},{"name":"其他","zipcode":"541000"}]},{"name":"河池市","district":[{"name":"巴马瑶族自治县","zipcode":"547000"},{"name":"大化瑶族自治县","zipcode":"547000"},{"name":"东兰县","zipcode":"547000"},{"name":"都安瑶族自治县","zipcode":"547000"},{"name":"凤山县","zipcode":"547000"},{"name":"环江毛南族自治县","zipcode":"547000"},{"name":"金城江区","zipcode":"547000"},{"name":"罗城仫佬族自治县","zipcode":"547000"},{"name":"南丹县","zipcode":"547000"},{"name":"天峨县","zipcode":"547000"},{"name":"宜州市","zipcode":"547000"},{"name":"其他","zipcode":"547000"}]},{"name":"贺州市","district":[{"name":"八步区","zipcode":"542800"},{"name":"富川瑶族自治县","zipcode":"542800"},{"name":"昭平县","zipcode":"542800"},{"name":"钟山县","zipcode":"542800"},{"name":"其他","zipcode":"542800"}]},{"name":"来宾市","district":[{"name":"合山市","zipcode":"546100"},{"name":"金秀瑶族自治县","zipcode":"546100"},{"name":"武宣县","zipcode":"546100"},{"name":"象州县","zipcode":"546100"},{"name":"忻城县","zipcode":"546100"},{"name":"兴宾区","zipcode":"546100"},{"name":"其他","zipcode":"546100"}]},{"name":"柳州市","district":[{"name":"城中区","zipcode":"545000"},{"name":"柳北区","zipcode":"545000"},{"name":"柳城县","zipcode":"545000"},{"name":"柳江县","zipcode":"545000"},{"name":"柳南区","zipcode":"545000"},{"name":"鹿寨县","zipcode":"545000"},{"name":"融安县","zipcode":"545000"},{"name":"融水苗族自治县","zipcode":"545000"},{"name":"三江侗族自治县","zipcode":"545000"},{"name":"鱼峰区","zipcode":"545000"},{"name":"其他","zipcode":"545000"}]},{"name":"南宁市","district":[{"name":"宾阳县","zipcode":"530000"},{"name":"横县","zipcode":"530000"},{"name":"江南区","zipcode":"530000"},{"name":"良庆区","zipcode":"530000"},{"name":"隆安县","zipcode":"530000"},{"name":"马山县","zipcode":"530000"},{"name":"青秀区","zipcode":"530000"},{"name":"上林县","zipcode":"530000"},{"name":"武鸣县","zipcode":"530000"},{"name":"西乡塘区","zipcode":"530000"},{"name":"兴宁区","zipcode":"530000"},{"name":"邕宁区","zipcode":"530000"},{"name":"其他","zipcode":"530000"}]},{"name":"钦州市","district":[{"name":"灵山县","zipcode":"535000"},{"name":"浦北县","zipcode":"535000"},{"name":"钦北区","zipcode":"535000"},{"name":"钦南区","zipcode":"535000"},{"name":"其他","zipcode":"535000"}]},{"name":"梧州市","district":[{"name":"苍梧县","zipcode":"543000"},{"name":"岑溪市","zipcode":"543000"},{"name":"长洲区","zipcode":"543000"},{"name":"蝶山区","zipcode":"543000"},{"name":"蒙山县","zipcode":"543000"},{"name":"藤县","zipcode":"543000"},{"name":"万秀区","zipcode":"543000"},{"name":"其他","zipcode":"543000"}]},{"name":"玉林市","district":[{"name":"北流市","zipcode":"537000"},{"name":"博白县","zipcode":"537000"},{"name":"陆川县","zipcode":"537000"},{"name":"容县","zipcode":"537000"},{"name":"兴业县","zipcode":"537000"},{"name":"玉州区","zipcode":"537000"},{"name":"其他","zipcode":"537000"}]}]}