{"code":0,"data":[{"name":"乌鲁木齐市","district":[{"name":"水磨沟区","zipcode":"830000"},{"name":"新市区","zipcode":"830000"},{"name":"东山区","zipcode":"830000"},{"name":"乌苏市","zipcode":"830000"},{"name":"哈依巴克区","zipcode":"830000"},{"name":"头屯河区","zipcode":"830000"},{"name":"天山区","zipcode":"830000"},{"name":"奎屯市","zipcode":"830000"},{"name":"沙湾县","zipcode":"830000"}]},{"name":"克拉玛依市","district":[{"name":"克拉玛依区","zipcode":"834000"},{"name":"乌尔禾区","zipcode":"834000"},{"name":"和布克赛尔蒙古自治县","zipcode":"834000"},{"name":"白碱滩区","zipcode":"834000"},{"name":"独山子区","zipcode":"834000"},{"name":"布克赛尔","zipcode":"834000"}]},{"name":"吐鲁番地区","district":[{"name":"吐鲁番市","zipcode":"838000"},{"name":"鄯善县","zipcode":"838000"},{"name":"托克逊县","zipcode":"838000"}]},{"name":"哈密地区","district":[{"name":"哈密市","zipcode":"839000"},{"name":"伊吾县","zipcode":"839000"},{"name":"巴里坤哈萨克自治县","zipcode":"839000"},{"name":"马里坤","zipcode":"839000"}]},{"name":"昌吉回族自治州","district":[{"name":"昌吉市","zipcode":"831100"},{"name":"呼图壁县","zipcode":"831100"},{"name":"米泉市","zipcode":"831100"},{"name":"阜康市","zipcode":"831100"},{"name":"吉木萨尔县","zipcode":"831100"},{"name":"奇台县","zipcode":"831100"},{"name":"木垒哈萨克自治县","zipcode":"831100"},{"name":"玛纳斯县","zipcode":"831100"}]},{"name":"博尔塔拉蒙古自治州","district":[{"name":"精河县","zipcode":"833400"},{"name":"博乐市","zipcode":"833400"},{"name":"温泉县","zipcode":"833400"}]},{"name":"巴音郭楞蒙古自治州","district":[{"name":"库尔勒市","zipcode":"841000"},{"name":"焉耆回族自治县","zipcode":"841000"},{"name":"和硕县","zipcode":"841000"},{"name":"和静县","zipcode":"841000"},{"name":"博湖县","zipcode":"841000"},{"name":"尉犁县","zipcode":"841000"},{"name":"轮台县","zipcode":"841000"},{"name":"若羌县","zipcode":"841000"},{"name":"且末县","zipcode":"841000"}]},{"name":"阿克苏地区","district":[{"name":"库车县","zipcode":"843000"},{"name":"新和县","zipcode":"843000"},{"name":"沙雅县","zipcode":"843000"},{"name":"拜城县","zipcode":"843000"},{"name":"阿克苏市","zipcode":"843000"},{"name":"温宿县","zipcode":"843000"},{"name":"阿瓦提县","zipcode":"843000"},{"name":"乌什县","zipcode":"843000"},{"name":"柯坪县","zipcode":"843000"},{"name":"阿合奇县","zipcode":"843000"}]},{"name":"克孜勒苏柯尔克孜自治州","district":[{"name":"阿图什市","zipcode":"835600"},{"name":"乌恰县","zipcode":"835600"},{"name":"阿克陶县","zipcode":"835600"}]},{"name":"喀什地区","district":[{"name":"巴楚县","zipcode":"844000"},{"name":"喀什市","zipcode":"844000"},{"name":"疏附县","zipcode":"844000"},{"name":"疏勒县","zipcode":"844000"},{"name":"伽师县","zipcode":"844000"},{"name":"岳普湖县","zipcode":"844000"},{"name":"英吉沙县","zipcode":"844000"},{"name":"麦盖提县","zipcode":"844000"},{"name":"莎车县","zipcode":"844000"},{"name":"泽普县","zipcode":"844000"},{"name":"叶城县","zipcode":"844000"},{"name":"塔什库尔干塔吉克自治县","zipcode":"844000"},{"name":"咯什","zipcode":"844000"}]},{"name":"和田地区","district":[{"name":"皮山县","zipcode":"848000"},{"name":"和田市","zipcode":"848000"},{"name":"和田县","zipcode":"848000"},{"name":"墨玉县","zipcode":"848000"},{"name":"洛浦县","zipcode":"848000"},{"name":"策勒县","zipcode":"848000"},{"name":"于田县","zipcode":"848000"},{"name":"民丰县","zipcode":"848000"}]},{"name":"伊犁哈萨克自治州","district":[{"name":"伊宁市","zipcode":"833200"},{"name":"伊宁县","zipcode":"833200"},{"name":"霍城县","zipcode":"833200"},{"name":"察布查尔锡伯自治县","zipcode":"833200"},{"name":"巩留县","zipcode":"833200"},{"name":"特克斯县","zipcode":"833200"},{"name":"昭苏县","zipcode":"833200"},{"name":"尼勒克县","zipcode":"833200"},{"name":"新源县","zipcode":"833200"}]},{"name":"塔城地区","district":[{"name":"塔城市","zipcode":"834700"},{"name":"托里县","zipcode":"834700"},{"name":"额敏县","zipcode":"834700"},{"name":"裕民县","zipcode":"834700"}]},{"name":"阿勒泰地区","district":[{"name":"富蕴县","zipcode":"836500"},{"name":"青河县","zipcode":"836500"},{"name":"福海县","zipcode":"836500"},{"name":"阿勒泰市","zipcode":"836500"},{"name":"布尔津县","zipcode":"836500"},{"name":"哈巴河县","zipcode":"836500"},{"name":"吉木乃县","zipcode":"836500"},{"name":"布尔津","zipcode":"836500"}]},{"name":"石河子市","district":{"name":"石河子市","zipcode":"832000"}},{"name":"阿拉尔市","district":{"name":"阿拉尔市","zipcode":"843300"}},{"name":"图木舒克市","district":{"name":"图木舒克市","zipcode":"843900"}},{"name":"五家渠市","district":{"name":"五家渠","zipcode":"五家渠市"}}]}