{"code":0,"data":[{"name":"抚州市","district":[{"name":"崇仁县","zipcode":"332900"},{"name":"东乡县","zipcode":"332900"},{"name":"广昌县","zipcode":"332900"},{"name":"金溪县","zipcode":"332900"},{"name":"乐安县","zipcode":"332900"},{"name":"黎川县","zipcode":"332900"},{"name":"临川区","zipcode":"332900"},{"name":"南城县","zipcode":"332900"},{"name":"南丰县","zipcode":"332900"},{"name":"宜黄县","zipcode":"332900"},{"name":"资溪县","zipcode":"332900"},{"name":"其他","zipcode":"332900"}]},{"name":"赣州市","district":[{"name":"安远县","zipcode":"341000"},{"name":"崇义县","zipcode":"341000"},{"name":"大余县","zipcode":"341000"},{"name":"定南县","zipcode":"341000"},{"name":"赣县","zipcode":"341000"},{"name":"会昌县","zipcode":"341000"},{"name":"龙南县","zipcode":"341000"},{"name":"南康市","zipcode":"341000"},{"name":"宁都县","zipcode":"341000"},{"name":"全南县","zipcode":"341000"},{"name":"瑞金市","zipcode":"341000"},{"name":"上犹县","zipcode":"341000"},{"name":"石城县","zipcode":"341000"},{"name":"信丰县","zipcode":"341000"},{"name":"兴国县","zipcode":"341000"},{"name":"寻乌县","zipcode":"341000"},{"name":"于都县","zipcode":"341000"},{"name":"章贡区","zipcode":"341000"},{"name":"其他","zipcode":"341000"}]},{"name":"吉安市","district":[{"name":"安福县","zipcode":"343000"},{"name":"吉安县","zipcode":"343000"},{"name":"吉水县","zipcode":"343000"},{"name":"吉州区","zipcode":"343000"},{"name":"井冈山市","zipcode":"343000"},{"name":"青原区","zipcode":"343000"},{"name":"遂川县","zipcode":"343000"},{"name":"泰和县","zipcode":"343000"},{"name":"万安县","zipcode":"343000"},{"name":"峡江县","zipcode":"343000"},{"name":"新干县","zipcode":"343000"},{"name":"永丰县","zipcode":"343000"},{"name":"永新县","zipcode":"343000"},{"name":"其他","zipcode":"343000"}]},{"name":"景德镇市","district":[{"name":"昌江区","zipcode":"333000"},{"name":"浮梁县","zipcode":"333000"},{"name":"乐平市","zipcode":"333000"},{"name":"珠山区","zipcode":"333000"},{"name":"其他","zipcode":"333000"}]},{"name":"九江市","district":[{"name":"德安县","zipcode":"332000"},{"name":"都昌县","zipcode":"332000"},{"name":"共青城","zipcode":"332000"},{"name":"湖口县","zipcode":"332000"},{"name":"九江县","zipcode":"332000"},{"name":"庐山区","zipcode":"332000"},{"name":"彭泽县","zipcode":"332000"},{"name":"瑞昌市","zipcode":"332000"},{"name":"武宁县","zipcode":"332000"},{"name":"星子县","zipcode":"332000"},{"name":"修水县","zipcode":"332000"},{"name":"浔阳区","zipcode":"332000"},{"name":"永修县","zipcode":"332000"},{"name":"其他","zipcode":"332000"}]},{"name":"南昌市","district":[{"name":"安义县","zipcode":"330000"},{"name":"东湖区","zipcode":"330000"},{"name":"进贤县","zipcode":"330000"},{"name":"南昌县","zipcode":"330000"},{"name":"青山湖区","zipcode":"330000"},{"name":"青云谱区","zipcode":"330000"},{"name":"湾里区","zipcode":"330000"},{"name":"西湖区","zipcode":"330000"},{"name":"新建县","zipcode":"330000"},{"name":"其他","zipcode":"330000"}]},{"name":"萍乡市","district":[{"name":"安源区","zipcode":"337000"},{"name":"莲花县","zipcode":"337000"},{"name":"芦溪县","zipcode":"337000"},{"name":"上栗县","zipcode":"337000"},{"name":"湘东区","zipcode":"337000"},{"name":"其他","zipcode":"337000"}]},{"name":"上饶市","district":[{"name":"德兴市","zipcode":"334000"},{"name":"广丰县","zipcode":"334000"},{"name":"横峰县","zipcode":"334000"},{"name":"鄱阳县","zipcode":"334000"},{"name":"铅山县","zipcode":"334000"},{"name":"上饶县","zipcode":"334000"},{"name":"万年县","zipcode":"334000"},{"name":"婺源县","zipcode":"334000"},{"name":"信州区","zipcode":"334000"},{"name":"弋阳县","zipcode":"334000"},{"name":"余干县","zipcode":"334000"},{"name":"玉山县","zipcode":"334000"},{"name":"其他","zipcode":"334000"}]},{"name":"新余市","district":[{"name":"分宜县","zipcode":"338000"},{"name":"渝水区","zipcode":"338000"},{"name":"其他","zipcode":"338000"}]},{"name":"宜春市","district":[{"name":"丰城市","zipcode":"336000"},{"name":"奉新县","zipcode":"336000"},{"name":"高安市","zipcode":"336000"},{"name":"靖安县","zipcode":"336000"},{"name":"上高县","zipcode":"336000"},{"name":"铜鼓县","zipcode":"336000"},{"name":"万载县","zipcode":"336000"},{"name":"宜丰县","zipcode":"336000"},{"name":"袁州区","zipcode":"336000"},{"name":"樟树市","zipcode":"336000"},{"name":"其他","zipcode":"336000"}]},{"name":"鹰潭市","district":[{"name":"贵溪市","zipcode":"335000"},{"name":"余江县","zipcode":"335000"},{"name":"月湖区","zipcode":"335000"},{"name":"其他","zipcode":"335000"}]}]}