{"code":0,"data":[{"name":"保定市","district":[{"name":"安国市","zipcode":"071000"},{"name":"安新县","zipcode":"071000"},{"name":"北市区","zipcode":"071000"},{"name":"博野县","zipcode":"071000"},{"name":"定兴县","zipcode":"071000"},{"name":"定州市","zipcode":"071000"},{"name":"阜平县","zipcode":"071000"},{"name":"高碑店市","zipcode":"071000"},{"name":"高阳县","zipcode":"071000"},{"name":"涞水县","zipcode":"071000"},{"name":"涞源县","zipcode":"071000"},{"name":"蠡县","zipcode":"071000"},{"name":"满城县","zipcode":"071000"},{"name":"南市区","zipcode":"071000"},{"name":"清苑县","zipcode":"071000"},{"name":"曲阳县","zipcode":"071000"},{"name":"容城县","zipcode":"071000"},{"name":"顺平县","zipcode":"071000"},{"name":"唐县","zipcode":"071000"},{"name":"望都县","zipcode":"071000"},{"name":"新市区","zipcode":"071000"},{"name":"雄县","zipcode":"071000"},{"name":"徐水县","zipcode":"071000"},{"name":"易县","zipcode":"071000"},{"name":"涿州市","zipcode":"071000"},{"name":"其他","zipcode":"71000"}]},{"name":"沧州市","district":[{"name":"泊头市","zipcode":"061000"},{"name":"沧县","zipcode":"061000"},{"name":"东光县","zipcode":"061000"},{"name":"海兴县","zipcode":"061000"},{"name":"河间市","zipcode":"061000"},{"name":"黄骅市","zipcode":"061000"},{"name":"孟村回族自治县","zipcode":"061000"},{"name":"南皮县","zipcode":"061000"},{"name":"青县","zipcode":"061000"},{"name":"任丘市","zipcode":"061000"},{"name":"肃宁县","zipcode":"061000"},{"name":"吴桥县","zipcode":"061000"},{"name":"献县","zipcode":"061000"},{"name":"新华区","zipcode":"061000"},{"name":"盐山县","zipcode":"061000"},{"name":"运河区","zipcode":"061000"},{"name":"其他","zipcode":"61000"}]},{"name":"承德市","district":[{"name":"承德县","zipcode":"067000"},{"name":"丰宁满族自治县","zipcode":"067000"},{"name":"宽城满族自治县","zipcode":"067000"},{"name":"隆化县","zipcode":"067000"},{"name":"滦平县","zipcode":"067000"},{"name":"平泉县","zipcode":"067000"},{"name":"双滦区","zipcode":"067000"},{"name":"双桥区","zipcode":"067000"},{"name":"围场满族蒙古族自治县","zipcode":"067000"},{"name":"兴隆县","zipcode":"067000"},{"name":"鹰手营子矿区","zipcode":"067000"},{"name":"其他","zipcode":"67000"}]},{"name":"邯郸市","district":[{"name":"成安县","zipcode":"056000"},{"name":"磁县","zipcode":"056000"},{"name":"丛台区","zipcode":"056000"},{"name":"大名县","zipcode":"056000"},{"name":"肥乡县","zipcode":"056000"},{"name":"峰峰矿区","zipcode":"056000"},{"name":"复兴区","zipcode":"056000"},{"name":"馆陶县","zipcode":"056000"},{"name":"广平县","zipcode":"056000"},{"name":"邯郸县","zipcode":"056000"},{"name":"邯山区","zipcode":"056000"},{"name":"鸡泽县","zipcode":"056000"},{"name":"临漳县","zipcode":"056000"},{"name":"邱县","zipcode":"056000"},{"name":"曲周县","zipcode":"056000"},{"name":"涉县","zipcode":"056000"},{"name":"魏县","zipcode":"056000"},{"name":"武安市","zipcode":"056000"},{"name":"永年县","zipcode":"056000"},{"name":"其他","zipcode":"56000"}]},{"name":"衡水市","district":[{"name":"安平县","zipcode":"053000"},{"name":"阜城县","zipcode":"053000"},{"name":"故城县","zipcode":"053000"},{"name":"冀州市","zipcode":"053000"},{"name":"景县","zipcode":"053000"},{"name":"饶阳县","zipcode":"053000"},{"name":"深州市","zipcode":"053000"},{"name":"桃城区","zipcode":"053000"},{"name":"武强县","zipcode":"053000"},{"name":"武邑县","zipcode":"053000"},{"name":"枣强县","zipcode":"053000"},{"name":"其他","zipcode":"53000"}]},{"name":"廊坊市","district":[{"name":"安次区","zipcode":"065000"},{"name":"霸州市","zipcode":"065000"},{"name":"大厂回族自治县","zipcode":"065000"},{"name":"大城县","zipcode":"065000"},{"name":"固安县","zipcode":"065000"},{"name":"广阳区","zipcode":"065000"},{"name":"三河市","zipcode":"065000"},{"name":"文安县","zipcode":"065000"},{"name":"香河县","zipcode":"065000"},{"name":"永清县","zipcode":"065000"},{"name":"其他","zipcode":"65000"}]},{"name":"秦皇岛市","district":[{"name":"北戴河区","zipcode":"066000"},{"name":"昌黎县","zipcode":"066000"},{"name":"抚宁县","zipcode":"066000"},{"name":"海港区","zipcode":"066000"},{"name":"经济技术开发区","zipcode":"066000"},{"name":"卢龙县","zipcode":"066000"},{"name":"青龙满族自治县","zipcode":"066000"},{"name":"山海关区","zipcode":"066000"},{"name":"其他","zipcode":"66000"}]},{"name":"石家庄市","district":[{"name":"长安区","zipcode":"050000"},{"name":"高邑县","zipcode":"050000"},{"name":"藁城市","zipcode":"050000"},{"name":"晋州市","zipcode":"050000"},{"name":"井陉矿区","zipcode":"050000"},{"name":"井陉县","zipcode":"050000"},{"name":"灵寿县","zipcode":"050000"},{"name":"鹿泉市","zipcode":"050000"},{"name":"栾城县","zipcode":"050000"},{"name":"平山县","zipcode":"050000"},{"name":"桥东区","zipcode":"050000"},{"name":"桥西区","zipcode":"050000"},{"name":"深泽县","zipcode":"050000"},{"name":"无极县","zipcode":"050000"},{"name":"辛集市","zipcode":"050000"},{"name":"新华区","zipcode":"050000"},{"name":"新乐市","zipcode":"050000"},{"name":"行唐县","zipcode":"050000"},{"name":"裕华区","zipcode":"050000"},{"name":"元氏县","zipcode":"050000"},{"name":"赞皇县","zipcode":"050000"},{"name":"赵县","zipcode":"050000"},{"name":"正定县","zipcode":"050000"},{"name":"其他","zipcode":"50000"}]},{"name":"唐山市","district":[{"name":"丰南区","zipcode":"063000"},{"name":"丰润区","zipcode":"063000"},{"name":"古冶区","zipcode":"063000"},{"name":"开平区","zipcode":"063000"},{"name":"乐亭县","zipcode":"063000"},{"name":"路北区","zipcode":"063000"},{"name":"路南区","zipcode":"063000"},{"name":"滦南县","zipcode":"063000"},{"name":"滦县","zipcode":"063000"},{"name":"迁安市","zipcode":"063000"},{"name":"迁西县","zipcode":"063000"},{"name":"唐海县","zipcode":"063000"},{"name":"玉田县","zipcode":"063000"},{"name":"遵化市","zipcode":"063000"},{"name":"其他","zipcode":"63000"}]},{"name":"邢台市","district":[{"name":"柏乡县","zipcode":"054000"},{"name":"广宗县","zipcode":"054000"},{"name":"巨鹿县","zipcode":"054000"},{"name":"临城县","zipcode":"054000"},{"name":"临西县","zipcode":"054000"},{"name":"隆尧县","zipcode":"054000"},{"name":"内丘县","zipcode":"054000"},{"name":"南宫市","zipcode":"054000"},{"name":"南和县","zipcode":"054000"},{"name":"宁晋县","zipcode":"054000"},{"name":"平乡县","zipcode":"054000"},{"name":"桥东区","zipcode":"054000"},{"name":"桥西区","zipcode":"054000"},{"name":"清河县","zipcode":"054000"},{"name":"任县","zipcode":"054000"},{"name":"沙河市","zipcode":"054000"},{"name":"威县","zipcode":"054000"},{"name":"新河县","zipcode":"054000"},{"name":"邢台县","zipcode":"054000"},{"name":"其他","zipcode":"54000"}]},{"name":"张家口市","district":[{"name":"赤城县","zipcode":"075000"},{"name":"崇礼县","zipcode":"075000"},{"name":"沽源县","zipcode":"075000"},{"name":"怀安县","zipcode":"075000"},{"name":"怀来县","zipcode":"075000"},{"name":"康保县","zipcode":"075000"},{"name":"桥东区","zipcode":"075000"},{"name":"桥西区","zipcode":"075000"},{"name":"尚义县","zipcode":"075000"},{"name":"万全县","zipcode":"075000"},{"name":"蔚县","zipcode":"075000"},{"name":"下花园区","zipcode":"075000"},{"name":"宣化区","zipcode":"075000"},{"name":"宣化县","zipcode":"075000"},{"name":"阳原县","zipcode":"075000"},{"name":"张北县","zipcode":"075000"},{"name":"涿鹿县","zipcode":"075000"},{"name":"其他","zipcode":"75000"}]}]}