{"code":0,"data":[{"name":"安阳市","district":[{"name":"安阳县","zipcode":"454900"},{"name":"北关区","zipcode":"454900"},{"name":"滑县","zipcode":"454900"},{"name":"林州市","zipcode":"454900"},{"name":"龙安区","zipcode":"454900"},{"name":"内黄县","zipcode":"454900"},{"name":"汤阴县","zipcode":"454900"},{"name":"文峰区","zipcode":"454900"},{"name":"殷都区","zipcode":"454900"},{"name":"其他","zipcode":"454900"}]},{"name":"鹤壁市","district":[{"name":"鹤山区","zipcode":"458000"},{"name":"浚县","zipcode":"458000"},{"name":"淇滨区","zipcode":"458000"},{"name":"淇县","zipcode":"458000"},{"name":"山城区","zipcode":"458000"},{"name":"其他","zipcode":"458000"}]},{"name":"焦作市","district":[{"name":"博爱县","zipcode":"454100"},{"name":"解放区","zipcode":"454100"},{"name":"孟州市","zipcode":"454100"},{"name":"沁阳市","zipcode":"454100"},{"name":"山阳区","zipcode":"454100"},{"name":"温县","zipcode":"454100"},{"name":"武陟县","zipcode":"454100"},{"name":"修武县","zipcode":"454100"},{"name":"中站区","zipcode":"454100"},{"name":"其他","zipcode":"454100"}]},{"name":"开封市","district":[{"name":"鼓楼区","zipcode":"475000"},{"name":"金明区","zipcode":"475000"},{"name":"开封县","zipcode":"475000"},{"name":"兰考县","zipcode":"475000"},{"name":"龙亭区","zipcode":"475000"},{"name":"杞县","zipcode":"475000"},{"name":"顺河回族区","zipcode":"475000"},{"name":"通许县","zipcode":"475000"},{"name":"尉氏县","zipcode":"475000"},{"name":"禹王台区","zipcode":"475000"},{"name":"其他","zipcode":"475000"}]},{"name":"洛阳市","district":[{"name":"瀍河回族区","zipcode":"471000"},{"name":"吉利区","zipcode":"471000"},{"name":"涧西区","zipcode":"471000"},{"name":"老城区","zipcode":"471000"},{"name":"栾川县","zipcode":"471000"},{"name":"洛龙区","zipcode":"471000"},{"name":"洛宁县","zipcode":"471000"},{"name":"孟津县","zipcode":"471000"},{"name":"汝阳县","zipcode":"471000"},{"name":"嵩县","zipcode":"471000"},{"name":"西工区","zipcode":"471000"},{"name":"新安县","zipcode":"471000"},{"name":"偃师市","zipcode":"471000"},{"name":"伊川县","zipcode":"471000"},{"name":"宜阳县","zipcode":"471000"},{"name":"其他","zipcode":"471000"}]},{"name":"漯河市","district":[{"name":"临颍县","zipcode":"462000"},{"name":"舞阳县","zipcode":"462000"},{"name":"郾城区","zipcode":"462000"},{"name":"源汇区","zipcode":"462000"},{"name":"召陵区","zipcode":"462000"},{"name":"其他","zipcode":"462000"}]},{"name":"南阳市","district":[{"name":"邓州市","zipcode":"473000"},{"name":"方城县","zipcode":"473000"},{"name":"内乡县","zipcode":"473000"},{"name":"南召县","zipcode":"473000"},{"name":"社旗县","zipcode":"473000"},{"name":"唐河县","zipcode":"473000"},{"name":"桐柏县","zipcode":"473000"},{"name":"宛城区","zipcode":"473000"},{"name":"卧龙区","zipcode":"473000"},{"name":"西峡县","zipcode":"473000"},{"name":"淅川县","zipcode":"473000"},{"name":"新野县","zipcode":"473000"},{"name":"镇平县","zipcode":"473000"},{"name":"其他","zipcode":"473000"}]},{"name":"平顶山市","district":[{"name":"宝丰县","zipcode":"467000"},{"name":"郏县","zipcode":"467000"},{"name":"鲁山县","zipcode":"467000"},{"name":"汝州市","zipcode":"467000"},{"name":"石龙区","zipcode":"467000"},{"name":"卫东区","zipcode":"467000"},{"name":"舞钢市","zipcode":"467000"},{"name":"新华区","zipcode":"467000"},{"name":"叶县","zipcode":"467000"},{"name":"湛河区","zipcode":"467000"},{"name":"其他","zipcode":"467000"}]},{"name":"濮阳市","district":[{"name":"范县","zipcode":"457000"},{"name":"华龙区","zipcode":"457000"},{"name":"南乐县","zipcode":"457000"},{"name":"濮阳县","zipcode":"457000"},{"name":"清丰县","zipcode":"457000"},{"name":"台前县","zipcode":"457000"},{"name":"其他","zipcode":"457000"}]},{"name":"三门峡市","district":[{"name":"湖滨区","zipcode":"472000"},{"name":"灵宝市","zipcode":"472000"},{"name":"卢氏县","zipcode":"472000"},{"name":"陕县","zipcode":"472000"},{"name":"渑池县","zipcode":"472000"},{"name":"义马市","zipcode":"472000"},{"name":"其他","zipcode":"472000"}]},{"name":"商丘市","district":[{"name":"梁园区","zipcode":"476000"},{"name":"民权县","zipcode":"476000"},{"name":"宁陵县","zipcode":"476000"},{"name":"睢县","zipcode":"476000"},{"name":"睢阳区","zipcode":"476000"},{"name":"夏邑县","zipcode":"476000"},{"name":"永城市","zipcode":"476000"},{"name":"虞城县","zipcode":"476000"},{"name":"柘城县","zipcode":"476000"},{"name":"其他","zipcode":"476000"}]},{"name":"新乡市","district":[{"name":"长垣县","zipcode":"453000"},{"name":"封丘县","zipcode":"453000"},{"name":"凤泉区","zipcode":"453000"},{"name":"红旗区","zipcode":"453000"},{"name":"辉县市","zipcode":"453000"},{"name":"获嘉县","zipcode":"453000"},{"name":"牧野区","zipcode":"453000"},{"name":"卫滨区","zipcode":"453000"},{"name":"卫辉市","zipcode":"453000"},{"name":"新乡县","zipcode":"453000"},{"name":"延津县","zipcode":"453000"},{"name":"原阳县","zipcode":"453000"},{"name":"其他","zipcode":"453000"}]},{"name":"信阳市","district":[{"name":"固始县","zipcode":"464000"},{"name":"光山县","zipcode":"464000"},{"name":"淮滨县","zipcode":"464000"},{"name":"潢川县","zipcode":"464000"},{"name":"罗山县","zipcode":"464000"},{"name":"平桥区","zipcode":"464000"},{"name":"商城县","zipcode":"464000"},{"name":"浉河区","zipcode":"464000"},{"name":"息县","zipcode":"464000"},{"name":"新县","zipcode":"464000"},{"name":"其他","zipcode":"464000"}]},{"name":"许昌市","district":[{"name":"长葛市","zipcode":"461000"},{"name":"魏都区","zipcode":"461000"},{"name":"襄城县","zipcode":"461000"},{"name":"许昌县","zipcode":"461000"},{"name":"鄢陵县","zipcode":"461000"},{"name":"禹州市","zipcode":"461000"},{"name":"其他","zipcode":"461000"}]},{"name":"郑州市","district":[{"name":"登封市","zipcode":"450000"},{"name":"二七区","zipcode":"450000"},{"name":"巩义市","zipcode":"450000"},{"name":"管城回族区","zipcode":"450000"},{"name":"惠济区","zipcode":"450000"},{"name":"金水区","zipcode":"450000"},{"name":"上街区","zipcode":"450000"},{"name":"新密市","zipcode":"450000"},{"name":"新郑市","zipcode":"450000"},{"name":"荥阳市","zipcode":"450000"},{"name":"中牟县","zipcode":"450000"},{"name":"中原区","zipcode":"450000"},{"name":"其他","zipcode":"450000"}]},{"name":"周口市","district":[{"name":"川汇区","zipcode":"466000"},{"name":"郸城县","zipcode":"466000"},{"name":"扶沟县","zipcode":"466000"},{"name":"淮阳县","zipcode":"466000"},{"name":"鹿邑县","zipcode":"466000"},{"name":"商水县","zipcode":"466000"},{"name":"沈丘县","zipcode":"466000"},{"name":"太康县","zipcode":"466000"},{"name":"西华县","zipcode":"466000"},{"name":"项城市","zipcode":"466000"},{"name":"其他","zipcode":"466000"}]},{"name":"驻马店市","district":[{"name":"泌阳县","zipcode":"463000"},{"name":"平舆县","zipcode":"463000"},{"name":"确山县","zipcode":"463000"},{"name":"汝南县","zipcode":"463000"},{"name":"上蔡县","zipcode":"463000"},{"name":"遂平县","zipcode":"463000"},{"name":"西平县","zipcode":"463000"},{"name":"新蔡县","zipcode":"463000"},{"name":"驿城区","zipcode":"463000"},{"name":"正阳县","zipcode":"463000"},{"name":"其他","zipcode":"463000"}]}]}