{"code":0,"data":[{"name":"杭州市","district":[{"name":"滨江区","zipcode":"310000"},{"name":"淳安县","zipcode":"310000"},{"name":"富阳市","zipcode":"310000"},{"name":"拱墅区","zipcode":"310000"},{"name":"建德市","zipcode":"310000"},{"name":"江干区","zipcode":"310000"},{"name":"临安市","zipcode":"310000"},{"name":"上城区","zipcode":"310000"},{"name":"桐庐县","zipcode":"310000"},{"name":"西湖区","zipcode":"310000"},{"name":"下城区","zipcode":"310000"},{"name":"萧山区","zipcode":"310000"},{"name":"余杭区","zipcode":"310000"},{"name":"其他","zipcode":"310000"}]},{"name":"湖州市","district":[{"name":"安吉县","zipcode":"313000"},{"name":"长兴县","zipcode":"313000"},{"name":"德清县","zipcode":"313000"},{"name":"南浔区","zipcode":"313000"},{"name":"吴兴区","zipcode":"313000"},{"name":"其他","zipcode":"313000"}]},{"name":"嘉兴市","district":[{"name":"海宁市","zipcode":"314000"},{"name":"海盐县","zipcode":"314000"},{"name":"嘉善县","zipcode":"314000"},{"name":"南湖区","zipcode":"314000"},{"name":"平湖市","zipcode":"314000"},{"name":"桐乡市","zipcode":"314000"},{"name":"秀洲区","zipcode":"314000"},{"name":"其他","zipcode":"314000"}]},{"name":"金华市","district":[{"name":"东阳市","zipcode":"321000"},{"name":"金东区","zipcode":"321000"},{"name":"兰溪市","zipcode":"321000"},{"name":"磐安县","zipcode":"321000"},{"name":"浦江县","zipcode":"321000"},{"name":"武义县","zipcode":"321000"},{"name":"婺城区","zipcode":"321000"},{"name":"义乌市","zipcode":"321000"},{"name":"永康市","zipcode":"321000"},{"name":"其他","zipcode":"321000"}]},{"name":"丽水市","district":[{"name":"缙云县","zipcode":"323000"},{"name":"景宁畲族自治县","zipcode":"323000"},{"name":"莲都区","zipcode":"323000"},{"name":"龙泉市","zipcode":"323000"},{"name":"青田县","zipcode":"323000"},{"name":"庆元县","zipcode":"323000"},{"name":"松阳县","zipcode":"323000"},{"name":"遂昌县","zipcode":"323000"},{"name":"云和县","zipcode":"323000"},{"name":"其他","zipcode":"323000"}]},{"name":"宁波市","district":[{"name":"北仑区","zipcode":"315000"},{"name":"慈溪市","zipcode":"315000"},{"name":"奉化市","zipcode":"315000"},{"name":"海曙区","zipcode":"315000"},{"name":"江北区","zipcode":"315000"},{"name":"江东区","zipcode":"315000"},{"name":"宁海县","zipcode":"315000"},{"name":"象山县","zipcode":"315000"},{"name":"鄞州区","zipcode":"315000"},{"name":"余姚市","zipcode":"315000"},{"name":"镇海区","zipcode":"315000"},{"name":"其他","zipcode":"315000"}]},{"name":"衢州市","district":[{"name":"常山县","zipcode":"324000"},{"name":"江山市","zipcode":"324000"},{"name":"开化县","zipcode":"324000"},{"name":"柯城区","zipcode":"324000"},{"name":"龙游县","zipcode":"324000"},{"name":"衢江区","zipcode":"324000"},{"name":"其他","zipcode":"324000"}]},{"name":"绍兴市","district":[{"name":"上虞市","zipcode":"312000"},{"name":"绍兴县","zipcode":"312000"},{"name":"嵊州市","zipcode":"312000"},{"name":"新昌县","zipcode":"312000"},{"name":"越城区","zipcode":"312000"},{"name":"诸暨市","zipcode":"312000"},{"name":"其他","zipcode":"312000"}]},{"name":"台州市","district":[{"name":"黄岩区","zipcode":"318000"},{"name":"椒江区","zipcode":"318000"},{"name":"临海市","zipcode":"318000"},{"name":"路桥区","zipcode":"318000"},{"name":"三门县","zipcode":"318000"},{"name":"天台县","zipcode":"318000"},{"name":"温岭市","zipcode":"318000"},{"name":"仙居县","zipcode":"318000"},{"name":"玉环县","zipcode":"318000"},{"name":"其他","zipcode":"318000"}]},{"name":"温州市","district":[{"name":"苍南县","zipcode":"325000"},{"name":"洞头县","zipcode":"325000"},{"name":"乐清市","zipcode":"325000"},{"name":"龙湾区","zipcode":"325000"},{"name":"鹿城区","zipcode":"325000"},{"name":"瓯海区","zipcode":"325000"},{"name":"平阳县","zipcode":"325000"},{"name":"瑞安市","zipcode":"325000"},{"name":"泰顺县","zipcode":"325000"},{"name":"文成县","zipcode":"325000"},{"name":"永嘉县","zipcode":"325000"},{"name":"其他","zipcode":"325000"}]},{"name":"舟山市","district":[{"name":"岱山县","zipcode":"316000"},{"name":"定海区","zipcode":"316000"},{"name":"普陀区","zipcode":"316000"},{"name":"嵊泗县","zipcode":"316000"},{"name":"其他","zipcode":"316000"}]}]}