{"code":0,"data":[{"name":"长沙市","district":[{"name":"长沙县","zipcode":"410000"},{"name":"芙蓉区","zipcode":"410000"},{"name":"开福区","zipcode":"410000"},{"name":"浏阳市","zipcode":"410000"},{"name":"宁乡县","zipcode":"410000"},{"name":"天心区","zipcode":"410000"},{"name":"望城县","zipcode":"410000"},{"name":"雨花区","zipcode":"410000"},{"name":"岳麓区","zipcode":"410000"},{"name":"其他","zipcode":"410000"}]},{"name":"常德市","district":[{"name":"安乡县","zipcode":"415000"},{"name":"鼎城区","zipcode":"415000"},{"name":"汉寿县","zipcode":"415000"},{"name":"津市市","zipcode":"415000"},{"name":"澧县","zipcode":"415000"},{"name":"临澧县","zipcode":"415000"},{"name":"石门县","zipcode":"415000"},{"name":"桃源县","zipcode":"415000"},{"name":"武陵区","zipcode":"415000"},{"name":"其他","zipcode":"415000"}]},{"name":"郴州市","district":[{"name":"安仁县","zipcode":"423000"},{"name":"北湖区","zipcode":"423000"},{"name":"桂东县","zipcode":"423000"},{"name":"桂阳县","zipcode":"423000"},{"name":"嘉禾县","zipcode":"423000"},{"name":"临武县","zipcode":"423000"},{"name":"汝城县","zipcode":"423000"},{"name":"苏仙区","zipcode":"423000"},{"name":"宜章县","zipcode":"423000"},{"name":"永兴县","zipcode":"423000"},{"name":"资兴市","zipcode":"423000"},{"name":"其他","zipcode":"423000"}]},{"name":"衡阳市","district":[{"name":"常宁市","zipcode":"421000"},{"name":"衡东县","zipcode":"421000"},{"name":"衡南县","zipcode":"421000"},{"name":"衡山县","zipcode":"421000"},{"name":"衡阳县","zipcode":"421000"},{"name":"耒阳市","zipcode":"421000"},{"name":"南岳区","zipcode":"421000"},{"name":"祁东县","zipcode":"421000"},{"name":"石鼓区","zipcode":"421000"},{"name":"雁峰区","zipcode":"421000"},{"name":"蒸湘区","zipcode":"421000"},{"name":"珠晖区","zipcode":"421000"},{"name":"其他","zipcode":"421000"}]},{"name":"怀化市","district":[{"name":"辰溪县","zipcode":"418000"},{"name":"鹤城区","zipcode":"418000"},{"name":"洪江市","zipcode":"418000"},{"name":"会同县","zipcode":"418000"},{"name":"靖州苗族侗族自治县","zipcode":"418000"},{"name":"麻阳苗族自治县","zipcode":"418000"},{"name":"通道侗族自治县","zipcode":"418000"},{"name":"新晃侗族自治县","zipcode":"418000"},{"name":"溆浦县","zipcode":"418000"},{"name":"沅陵县","zipcode":"418000"},{"name":"芷江侗族自治县","zipcode":"418000"},{"name":"中方县","zipcode":"418000"},{"name":"其他","zipcode":"418000"}]},{"name":"娄底市","district":[{"name":"冷水江市","zipcode":"417000"},{"name":"涟源市","zipcode":"417000"},{"name":"娄星区","zipcode":"417000"},{"name":"双峰县","zipcode":"417000"},{"name":"新化县","zipcode":"417000"},{"name":"其他","zipcode":"417000"}]},{"name":"邵阳市","district":[{"name":"北塔区","zipcode":"422000"},{"name":"城步苗族自治县","zipcode":"422000"},{"name":"大祥区","zipcode":"422000"},{"name":"洞口县","zipcode":"422000"},{"name":"隆回县","zipcode":"422000"},{"name":"邵东县","zipcode":"422000"},{"name":"邵阳县","zipcode":"422000"},{"name":"双清区","zipcode":"422000"},{"name":"绥宁县","zipcode":"422000"},{"name":"武冈市","zipcode":"422000"},{"name":"新宁县","zipcode":"422000"},{"name":"新邵县","zipcode":"422000"},{"name":"其他","zipcode":"422000"}]},{"name":"湘潭市","district":[{"name":"韶山市","zipcode":"411100"},{"name":"湘潭县","zipcode":"411100"},{"name":"湘乡市","zipcode":"411100"},{"name":"雨湖区","zipcode":"411100"},{"name":"岳塘区","zipcode":"411100"},{"name":"其他","zipcode":"411100"}]},{"name":"湘西土家族苗族自治州","district":[{"name":"保靖县","zipcode":"416000"},{"name":"凤凰县","zipcode":"416000"},{"name":"古丈县","zipcode":"416000"},{"name":"花垣县","zipcode":"416000"},{"name":"吉首市","zipcode":"416000"},{"name":"龙山县","zipcode":"416000"},{"name":"泸溪县","zipcode":"416000"},{"name":"永顺县","zipcode":"416000"},{"name":"其他","zipcode":"416000"}]},{"name":"益阳市","district":[{"name":"安化县","zipcode":"413000"},{"name":"赫山区","zipcode":"413000"},{"name":"南县","zipcode":"413000"},{"name":"桃江县","zipcode":"413000"},{"name":"沅江市","zipcode":"413000"},{"name":"资阳区","zipcode":"413000"},{"name":"其他","zipcode":"413000"}]},{"name":"永州市","district":[{"name":"道县","zipcode":"425000"},{"name":"东安县","zipcode":"425000"},{"name":"江华瑶族自治县","zipcode":"425000"},{"name":"江永县","zipcode":"425000"},{"name":"蓝山县","zipcode":"425000"},{"name":"冷水滩区","zipcode":"425000"},{"name":"零陵区","zipcode":"425000"},{"name":"宁远县","zipcode":"425000"},{"name":"祁阳县","zipcode":"425000"},{"name":"双牌县","zipcode":"425000"},{"name":"新田县","zipcode":"425000"},{"name":"其他","zipcode":"425000"}]},{"name":"岳阳市","district":[{"name":"华容县","zipcode":"414000"},{"name":"君山区","zipcode":"414000"},{"name":"临湘市","zipcode":"414000"},{"name":"汨罗市","zipcode":"414000"},{"name":"平江县","zipcode":"414000"},{"name":"湘阴县","zipcode":"414000"},{"name":"岳阳楼区","zipcode":"414000"},{"name":"岳阳县","zipcode":"414000"},{"name":"云溪区","zipcode":"414000"},{"name":"其他","zipcode":"414000"}]},{"name":"张家界市","district":[{"name":"慈利县","zipcode":"427000"},{"name":"桑植县","zipcode":"427000"},{"name":"武陵源区","zipcode":"427000"},{"name":"永定区","zipcode":"427000"},{"name":"其他","zipcode":"427000"}]},{"name":"株洲市","district":[{"name":"茶陵县","zipcode":"412000"},{"name":"荷塘区","zipcode":"412000"},{"name":"醴陵市","zipcode":"412000"},{"name":"芦淞区","zipcode":"412000"},{"name":"石峰区","zipcode":"412000"},{"name":"天元区","zipcode":"412000"},{"name":"炎陵县","zipcode":"412000"},{"name":"攸县","zipcode":"412000"},{"name":"株洲县","zipcode":"412000"},{"name":"其他","zipcode":"412000"}]}]}