{"code":0,"data":[{"name":"白银市","district":[{"name":"白银区","zipcode":"730900"},{"name":"会宁县","zipcode":"730900"},{"name":"景泰县","zipcode":"730900"},{"name":"靖远县","zipcode":"730900"},{"name":"平川区","zipcode":"730900"},{"name":"其他","zipcode":"730900"}]},{"name":"定西市","district":[{"name":"安定区","zipcode":"743000"},{"name":"临洮县","zipcode":"743000"},{"name":"陇西县","zipcode":"743000"},{"name":"岷县","zipcode":"743000"},{"name":"通渭县","zipcode":"743000"},{"name":"渭源县","zipcode":"743000"},{"name":"漳县","zipcode":"743000"},{"name":"其他","zipcode":"743000"}]},{"name":"甘南藏族自治州","district":[{"name":"迭部县","zipcode":"747000"},{"name":"合作市","zipcode":"747000"},{"name":"临潭县","zipcode":"747000"},{"name":"碌曲县","zipcode":"747000"},{"name":"玛曲县","zipcode":"747000"},{"name":"夏河县","zipcode":"747000"},{"name":"舟曲县","zipcode":"747000"},{"name":"卓尼县","zipcode":"747000"},{"name":"其他","zipcode":"747000"}]},{"name":"金昌市","district":[{"name":"金川区","zipcode":"737100"},{"name":"永昌县","zipcode":"737100"},{"name":"其他","zipcode":"737100"}]},{"name":"酒泉市","district":[{"name":"阿克塞哈萨克族自治县","zipcode":"735000"},{"name":"敦煌市","zipcode":"735000"},{"name":"瓜州县","zipcode":"735000"},{"name":"金塔县","zipcode":"735000"},{"name":"肃北蒙古族自治县","zipcode":"735000"},{"name":"肃州区","zipcode":"735000"},{"name":"玉门市","zipcode":"735000"},{"name":"其他","zipcode":"735000"}]},{"name":"兰州市","district":[{"name":"安宁区","zipcode":"730000"},{"name":"城关区","zipcode":"730000"},{"name":"皋兰县","zipcode":"730000"},{"name":"红古区","zipcode":"730000"},{"name":"七里河区","zipcode":"730000"},{"name":"西固区","zipcode":"730000"},{"name":"永登县","zipcode":"730000"},{"name":"榆中县","zipcode":"730000"},{"name":"其他","zipcode":"730000"}]},{"name":"临夏回族自治州","district":[{"name":"东乡族自治县","zipcode":"731100"},{"name":"广河县","zipcode":"731100"},{"name":"和政县","zipcode":"731100"},{"name":"积石山保安族东乡族撒拉族自治县","zipcode":"731100"},{"name":"康乐县","zipcode":"731100"},{"name":"临夏市","zipcode":"731100"},{"name":"临夏县","zipcode":"731100"},{"name":"永靖县","zipcode":"731100"},{"name":"其他","zipcode":"731100"}]},{"name":"陇南市","district":[{"name":"成县","zipcode":"742100"},{"name":"宕昌县","zipcode":"742100"},{"name":"徽县","zipcode":"742100"},{"name":"康县","zipcode":"742100"},{"name":"礼县","zipcode":"742100"},{"name":"两当县","zipcode":"742100"},{"name":"文县","zipcode":"742100"},{"name":"武都区","zipcode":"742100"},{"name":"西和县","zipcode":"742100"},{"name":"其他","zipcode":"742100"}]},{"name":"平凉市","district":[{"name":"崇信县","zipcode":"744000"},{"name":"华亭县","zipcode":"744000"},{"name":"泾川县","zipcode":"744000"},{"name":"静宁县","zipcode":"744000"},{"name":"崆峒区","zipcode":"744000"},{"name":"灵台县","zipcode":"744000"},{"name":"庄浪县","zipcode":"744000"},{"name":"其他","zipcode":"744000"}]},{"name":"庆阳市","district":[{"name":"合水县","zipcode":"744500"},{"name":"华池县","zipcode":"744500"},{"name":"环县","zipcode":"744500"},{"name":"宁县","zipcode":"744500"},{"name":"庆城县","zipcode":"744500"},{"name":"西峰区","zipcode":"744500"},{"name":"镇原县","zipcode":"744500"},{"name":"正宁县","zipcode":"744500"},{"name":"其他","zipcode":"744500"}]},{"name":"天水市","district":[{"name":"甘谷县","zipcode":"741000"},{"name":"麦积区","zipcode":"741000"},{"name":"秦安县","zipcode":"741000"},{"name":"秦州区","zipcode":"741000"},{"name":"清水县","zipcode":"741000"},{"name":"武山县","zipcode":"741000"},{"name":"张家川回族自治县","zipcode":"741000"},{"name":"其他","zipcode":"741000"}]},{"name":"武威市","district":[{"name":"古浪县","zipcode":"733000"},{"name":"凉州区","zipcode":"733000"},{"name":"民勤县","zipcode":"733000"},{"name":"天祝藏族自治县","zipcode":"733000"},{"name":"其他","zipcode":"733000"}]},{"name":"张掖市","district":[{"name":"甘州区","zipcode":"734000"},{"name":"高台县","zipcode":"734000"},{"name":"临泽县","zipcode":"734000"},{"name":"民乐县","zipcode":"734000"},{"name":"山丹县","zipcode":"734000"},{"name":"肃南裕固族自治县","zipcode":"734000"},{"name":"其他","zipcode":"734000"}]}]}