{"code":0,"data":[{"name":"福州市","district":[{"name":"仓山区","zipcode":"350000"},{"name":"长乐市","zipcode":"350000"},{"name":"福清市","zipcode":"350000"},{"name":"鼓楼区","zipcode":"350000"},{"name":"晋安区","zipcode":"350000"},{"name":"连江县","zipcode":"350000"},{"name":"罗源县","zipcode":"350000"},{"name":"马尾区","zipcode":"350000"},{"name":"闽侯县","zipcode":"350000"},{"name":"闽清县","zipcode":"350000"},{"name":"平潭县","zipcode":"350000"},{"name":"台江区","zipcode":"350000"},{"name":"永泰县","zipcode":"350000"},{"name":"其他","zipcode":"350000"}]},{"name":"龙岩市","district":[{"name":"长汀县","zipcode":"364000"},{"name":"连城县","zipcode":"364000"},{"name":"上杭县","zipcode":"364000"},{"name":"武平县","zipcode":"364000"},{"name":"新罗区","zipcode":"364000"},{"name":"永定县","zipcode":"364000"},{"name":"漳平市","zipcode":"364000"},{"name":"其他","zipcode":"364000"}]},{"name":"南平市","district":[{"name":"光泽县","zipcode":"353000"},{"name":"建瓯市","zipcode":"353000"},{"name":"建阳市","zipcode":"353000"},{"name":"浦城县","zipcode":"353000"},{"name":"邵武市","zipcode":"353000"},{"name":"顺昌县","zipcode":"353000"},{"name":"松溪县","zipcode":"353000"},{"name":"武夷山市","zipcode":"353000"},{"name":"延平区","zipcode":"353000"},{"name":"政和县","zipcode":"353000"},{"name":"其他","zipcode":"353000"}]},{"name":"宁德市","district":[{"name":"福安市","zipcode":"352100"},{"name":"福鼎市","zipcode":"352100"},{"name":"古田县","zipcode":"352100"},{"name":"蕉城区","zipcode":"352100"},{"name":"屏南县","zipcode":"352100"},{"name":"寿宁县","zipcode":"352100"},{"name":"霞浦县","zipcode":"352100"},{"name":"柘荣县","zipcode":"352100"},{"name":"周宁县","zipcode":"352100"},{"name":"其他","zipcode":"352100"}]},{"name":"莆田市","district":[{"name":"城厢区","zipcode":"362000"},{"name":"涵江区","zipcode":"362000"},{"name":"荔城区","zipcode":"362000"},{"name":"仙游县","zipcode":"362000"},{"name":"秀屿区","zipcode":"362000"},{"name":"其他","zipcode":"362000"}]},{"name":"泉州市","district":[{"name":"安溪县","zipcode":"362000"},{"name":"德化县","zipcode":"362000"},{"name":"丰泽区","zipcode":"362000"},{"name":"惠安县","zipcode":"362000"},{"name":"晋江市","zipcode":"362000"},{"name":"鲤城区","zipcode":"362000"},{"name":"洛江区","zipcode":"362000"},{"name":"南安市","zipcode":"362000"},{"name":"泉港区","zipcode":"362000"},{"name":"石狮市","zipcode":"362000"},{"name":"永春县","zipcode":"362000"},{"name":"其他","zipcode":"362000"}]},{"name":"三明市","district":[{"name":"大田县","zipcode":"363000"},{"name":"建宁县","zipcode":"363000"},{"name":"将乐县","zipcode":"363000"},{"name":"梅列区","zipcode":"363000"},{"name":"明溪县","zipcode":"363000"},{"name":"宁化县","zipcode":"363000"},{"name":"清流县","zipcode":"743000"},{"name":"三元区","zipcode":"743000"},{"name":"沙县","zipcode":"743000"},{"name":"泰宁县","zipcode":"743000"},{"name":"永安市","zipcode":"743000"},{"name":"尤溪县","zipcode":"743000"},{"name":"其他","zipcode":"743000"}]},{"name":"厦门市","district":[{"name":"海沧区","zipcode":"743000"},{"name":"湖里区","zipcode":"361000"},{"name":"集美区","zipcode":"361000"},{"name":"思明区","zipcode":"361000"},{"name":"同安区","zipcode":"361000"},{"name":"翔安区","zipcode":"361000"},{"name":"其他","zipcode":"361000"}]},{"name":"漳州市","district":[{"name":"长泰县","zipcode":"363000"},{"name":"东山县","zipcode":"363000"},{"name":"华安县","zipcode":"363000"},{"name":"龙海市","zipcode":"363000"},{"name":"龙文区","zipcode":"363000"},{"name":"南靖县","zipcode":"363000"},{"name":"平和县","zipcode":"363000"},{"name":"芗城区","zipcode":"363000"},{"name":"云霄县","zipcode":"363000"},{"name":"漳浦县","zipcode":"363000"},{"name":"诏安县","zipcode":"363000"},{"name":"其他","zipcode":"363000"}]}]}