{"code":0,"data":[{"name":"拉萨市","district":[{"name":"城关区","zipcode":"850000"},{"name":"墨竹工卡县","zipcode":"850000"},{"name":"堆龙德庆县","zipcode":"850000"},{"name":"林周县","zipcode":"850000"},{"name":"达孜县","zipcode":"850000"},{"name":"曲水县","zipcode":"850000"},{"name":"当雄县","zipcode":"850000"},{"name":"尼木县","zipcode":"850000"}]},{"name":"昌都地区","district":[{"name":"昌都县","zipcode":"854000"},{"name":"贡觉县","zipcode":"854000"},{"name":"左贡县","zipcode":"854000"},{"name":"八宿县","zipcode":"854000"},{"name":"边坝县","zipcode":"854000"},{"name":"丁青县","zipcode":"854000"},{"name":"江达县","zipcode":"854000"},{"name":"察雅县","zipcode":"854000"},{"name":"芒康县","zipcode":"854000"},{"name":"洛隆县","zipcode":"854000"},{"name":"类乌齐县","zipcode":"854000"}]},{"name":"山南地区","district":[{"name":"贡嘎县","zipcode":"856000"},{"name":"浪卡子县","zipcode":"856000"},{"name":"乃东县","zipcode":"856000"},{"name":"曲松县","zipcode":"856000"},{"name":"隆子县","zipcode":"856000"},{"name":"琼结县","zipcode":"856000"},{"name":"扎囊县","zipcode":"856000"},{"name":"洛扎县","zipcode":"856000"},{"name":"桑日县","zipcode":"856000"},{"name":"夹查县","zipcode":"856000"},{"name":"错那县","zipcode":"856000"},{"name":"措美县","zipcode":"856000"}]},{"name":"日喀则地区","district":[{"name":"日喀则市","zipcode":"857000"},{"name":"仁布县","zipcode":"857000"},{"name":"江孜县","zipcode":"857000"},{"name":"亚东县","zipcode":"857000"},{"name":"萨迦县","zipcode":"857000"},{"name":"拉孜县","zipcode":"857000"},{"name":"聂拉木县","zipcode":"857000"},{"name":"萨嘎县","zipcode":"857000"},{"name":"仲巴县","zipcode":"857000"},{"name":"南木林县","zipcode":"857000"},{"name":"白朗县","zipcode":"857000"},{"name":"康马县","zipcode":"857000"},{"name":"岗巴县","zipcode":"857000"},{"name":"定结县","zipcode":"857000"},{"name":"定日县","zipcode":"857000"},{"name":"昂仁县","zipcode":"857000"},{"name":"吉隆县","zipcode":"857000"},{"name":"谢通门县","zipcode":"857000"}]},{"name":"那曲地区","district":[{"name":"那曲县","zipcode":"852000"},{"name":"索县","zipcode":"852000"},{"name":"嘉黎县","zipcode":"852000"},{"name":"申扎县","zipcode":"852000"},{"name":"安多县","zipcode":"852000"},{"name":"巴青县","zipcode":"852000"},{"name":"比如县","zipcode":"852000"},{"name":"班戈县","zipcode":"852000"},{"name":"尼玛县","zipcode":"852000"},{"name":"聂荣县","zipcode":"852000"}]},{"name":"阿里地区","district":[{"name":"噶尔县","zipcode":"859100"},{"name":"改则县","zipcode":"859100"},{"name":"普兰县","zipcode":"859100"},{"name":"日土县","zipcode":"859100"},{"name":"革吉县","zipcode":"859100"},{"name":"措勤县","zipcode":"859100"},{"name":"札达县","zipcode":"859100"}]},{"name":"林芝地区","district":[{"name":"林芝县","zipcode":"860100"},{"name":"波密县","zipcode":"860100"},{"name":"米林县","zipcode":"860100"},{"name":"墨脱县","zipcode":"860100"},{"name":"工布江达县","zipcode":"860100"},{"name":"郎县","zipcode":"860100"},{"name":"察隅县","zipcode":"860100"}]}]}