{"code":0,"data":[{"name":"安顺市","district":[{"name":"关岭布依族苗族自治县","zipcode":"561000"},{"name":"平坝县","zipcode":"561000"},{"name":"普定县","zipcode":"561000"},{"name":"西秀区","zipcode":"561000"},{"name":"镇宁布依族苗族自治县","zipcode":"561000"},{"name":"紫云苗族布依族自治县","zipcode":"561000"},{"name":"其他","zipcode":"561000"}]},{"name":"毕节地区","district":[{"name":"毕节市","zipcode":"551700"},{"name":"大方县","zipcode":"551700"},{"name":"赫章县","zipcode":"551700"},{"name":"金沙县","zipcode":"551700"},{"name":"纳雍县","zipcode":"551700"},{"name":"黔西县","zipcode":"551700"},{"name":"威宁彝族回族苗族自治县","zipcode":"551700"},{"name":"织金县","zipcode":"551700"},{"name":"其他","zipcode":"551700"}]},{"name":"贵阳市","district":[{"name":"白云区","zipcode":"550000"},{"name":"花溪区","zipcode":"550000"},{"name":"开阳县","zipcode":"550000"},{"name":"南明区","zipcode":"550000"},{"name":"清镇市","zipcode":"550000"},{"name":"乌当区","zipcode":"550000"},{"name":"息烽县","zipcode":"550000"},{"name":"小河区","zipcode":"550000"},{"name":"修文县","zipcode":"550000"},{"name":"云岩区","zipcode":"550000"},{"name":"其他","zipcode":"550000"}]},{"name":"六盘水市","district":[{"name":"六枝特区","zipcode":"553000"},{"name":"盘县","zipcode":"553000"},{"name":"水城县","zipcode":"553000"},{"name":"钟山区","zipcode":"553000"},{"name":"其他","zipcode":"553000"}]},{"name":"黔东南苗族侗族自治州","district":[{"name":"岑巩县","zipcode":"556000"},{"name":"从江县","zipcode":"556000"},{"name":"丹寨县","zipcode":"556000"},{"name":"黄平县","zipcode":"556000"},{"name":"剑河县","zipcode":"556000"},{"name":"锦屏县","zipcode":"556000"},{"name":"凯里市","zipcode":"556000"},{"name":"雷山县","zipcode":"556000"},{"name":"黎平县","zipcode":"556000"},{"name":"麻江县","zipcode":"556000"},{"name":"榕江县","zipcode":"556000"},{"name":"三穗县","zipcode":"556000"},{"name":"施秉县","zipcode":"556000"},{"name":"台江县","zipcode":"556000"},{"name":"天柱县","zipcode":"556000"},{"name":"镇远县","zipcode":"556000"},{"name":"其他","zipcode":"556000"}]},{"name":"黔南布依族苗族自治州","district":[{"name":"长顺县","zipcode":"558000"},{"name":"都匀市","zipcode":"558000"},{"name":"独山县","zipcode":"558000"},{"name":"福泉市","zipcode":"558000"},{"name":"贵定县","zipcode":"558000"},{"name":"惠水县","zipcode":"558000"},{"name":"荔波县","zipcode":"558000"},{"name":"龙里县","zipcode":"558000"},{"name":"罗甸县","zipcode":"558000"},{"name":"平塘县","zipcode":"558000"},{"name":"三都水族自治县","zipcode":"558000"},{"name":"瓮安县","zipcode":"558000"},{"name":"其他","zipcode":"558000"}]},{"name":"黔西南布依族苗族自治州","district":[{"name":"安龙县","zipcode":"562400"},{"name":"册亨县","zipcode":"562400"},{"name":"普安县","zipcode":"562400"},{"name":"晴隆县","zipcode":"562400"},{"name":"望谟县","zipcode":"562400"},{"name":"兴仁县","zipcode":"562400"},{"name":"兴义市","zipcode":"562400"},{"name":"贞丰县","zipcode":"562400"},{"name":"其他","zipcode":"562400"}]},{"name":"铜仁地区","district":[{"name":"德江县","zipcode":"554300"},{"name":"江口县","zipcode":"554300"},{"name":"石阡县","zipcode":"554300"},{"name":"思南县","zipcode":"554300"},{"name":"松桃苗族自治县","zipcode":"554300"},{"name":"铜仁市","zipcode":"554300"},{"name":"万山特区","zipcode":"554300"},{"name":"沿河土家族自治县","zipcode":"554300"},{"name":"印江土家族苗族自治县","zipcode":"554300"},{"name":"玉屏侗族自治县","zipcode":"554300"},{"name":"其他","zipcode":"554300"}]},{"name":"遵义市","district":[{"name":"赤水市","zipcode":"563000"},{"name":"道真仡佬族苗族自治县","zipcode":"563000"},{"name":"凤冈县","zipcode":"563000"},{"name":"红花岗区","zipcode":"563000"},{"name":"汇川区","zipcode":"563000"},{"name":"湄潭县","zipcode":"563000"},{"name":"仁怀市","zipcode":"563000"},{"name":"绥阳县","zipcode":"563000"},{"name":"桐梓县","zipcode":"563000"},{"name":"务川仡佬族苗族自治县","zipcode":"563000"},{"name":"习水县","zipcode":"563000"},{"name":"余庆县","zipcode":"563000"},{"name":"正安县","zipcode":"563000"},{"name":"遵义县","zipcode":"563000"},{"name":"其他","zipcode":"563000"}]}]}