{"code":0,"data":[{"name":"鞍山市","district":[{"name":"海城市","zipcode":"114000"},{"name":"立山区","zipcode":"114000"},{"name":"千山区","zipcode":"114000"},{"name":"台安县","zipcode":"114000"},{"name":"铁东区","zipcode":"114000"},{"name":"铁西区","zipcode":"114000"},{"name":"岫岩满族自治县","zipcode":"114000"},{"name":"其他","zipcode":"114000"}]},{"name":"本溪市","district":[{"name":"本溪满族自治县","zipcode":"117000"},{"name":"桓仁满族自治县","zipcode":"117000"},{"name":"明山区","zipcode":"117000"},{"name":"南芬区","zipcode":"117000"},{"name":"平山区","zipcode":"117000"},{"name":"溪湖区","zipcode":"117000"},{"name":"其他","zipcode":"117000"}]},{"name":"朝阳市","district":[{"name":"北票市","zipcode":"122000"},{"name":"朝阳县","zipcode":"122000"},{"name":"建平县","zipcode":"122000"},{"name":"喀喇沁左翼蒙古族自治县","zipcode":"122000"},{"name":"凌源市","zipcode":"122000"},{"name":"龙城区","zipcode":"122000"},{"name":"双塔区","zipcode":"122000"},{"name":"其他","zipcode":"122000"}]},{"name":"大连市","district":[{"name":"长海县","zipcode":"116000"},{"name":"甘井子区","zipcode":"116000"},{"name":"金州区","zipcode":"116000"},{"name":"旅顺口区","zipcode":"116000"},{"name":"普兰店市","zipcode":"116000"},{"name":"沙河口区","zipcode":"116000"},{"name":"瓦房店市","zipcode":"116000"},{"name":"西岗区","zipcode":"116000"},{"name":"中山区","zipcode":"116000"},{"name":"庄河市","zipcode":"116000"},{"name":"其他","zipcode":"116000"}]},{"name":"丹东市","district":[{"name":"东港市","zipcode":"118000"},{"name":"凤城市","zipcode":"118000"},{"name":"宽甸满族自治县","zipcode":"118000"},{"name":"元宝区","zipcode":"118000"},{"name":"振安区","zipcode":"118000"},{"name":"振兴区","zipcode":"118000"},{"name":"其他","zipcode":"118000"}]},{"name":"抚顺市","district":[{"name":"东洲区","zipcode":"113000"},{"name":"抚顺县","zipcode":"113000"},{"name":"清原满族自治县","zipcode":"113000"},{"name":"顺城区","zipcode":"113000"},{"name":"望花区","zipcode":"113000"},{"name":"新宾满族自治县","zipcode":"113000"},{"name":"新抚区","zipcode":"113000"},{"name":"其他","zipcode":"113000"}]},{"name":"阜新市","district":[{"name":"阜新蒙古族自治县","zipcode":"123000"},{"name":"海州区","zipcode":"123000"},{"name":"清河门区","zipcode":"123000"},{"name":"太平区","zipcode":"123000"},{"name":"细河区","zipcode":"123000"},{"name":"新邱区","zipcode":"123000"},{"name":"彰武县","zipcode":"123000"},{"name":"其他","zipcode":"123000"}]},{"name":"葫芦岛市","district":[{"name":"建昌县","zipcode":"125000"},{"name":"连山区","zipcode":"125000"},{"name":"龙港区","zipcode":"125000"},{"name":"南票区","zipcode":"125000"},{"name":"绥中县","zipcode":"125000"},{"name":"兴城市","zipcode":"125000"},{"name":"其他","zipcode":"125000"}]},{"name":"锦州市","district":[{"name":"北镇市","zipcode":"121000"},{"name":"古塔区","zipcode":"121000"},{"name":"黑山县","zipcode":"121000"},{"name":"凌海市","zipcode":"121000"},{"name":"凌河区","zipcode":"121000"},{"name":"太和区","zipcode":"121000"},{"name":"义县","zipcode":"121000"},{"name":"其他","zipcode":"121000"}]},{"name":"辽阳市","district":[{"name":"白塔区","zipcode":"111000"},{"name":"灯塔市","zipcode":"111000"},{"name":"弓长岭区","zipcode":"111000"},{"name":"宏伟区","zipcode":"111000"},{"name":"辽阳县","zipcode":"111000"},{"name":"太子河区","zipcode":"111000"},{"name":"文圣区","zipcode":"111000"},{"name":"其他","zipcode":"111000"}]},{"name":"盘锦市","district":[{"name":"大洼县","zipcode":"124000"},{"name":"盘山县","zipcode":"124000"},{"name":"双台子区","zipcode":"124000"},{"name":"兴隆台区","zipcode":"124000"},{"name":"其他","zipcode":"124000"}]},{"name":"沈阳市","district":[{"name":"大东区","zipcode":"110000"},{"name":"东陵区","zipcode":"110000"},{"name":"法库县","zipcode":"110000"},{"name":"和平区","zipcode":"110000"},{"name":"皇姑区","zipcode":"110000"},{"name":"康平县","zipcode":"110000"},{"name":"辽中县","zipcode":"110000"},{"name":"沈北新区","zipcode":"110000"},{"name":"沈河区","zipcode":"110000"},{"name":"苏家屯区","zipcode":"110000"},{"name":"铁西区","zipcode":"110000"},{"name":"新民市","zipcode":"110000"},{"name":"于洪区","zipcode":"110000"},{"name":"其他","zipcode":"110000"}]},{"name":"铁岭市","district":[{"name":"昌图县","zipcode":"112000"},{"name":"调兵山市","zipcode":"112000"},{"name":"开原市","zipcode":"112000"},{"name":"清河区","zipcode":"112000"},{"name":"铁岭县","zipcode":"112000"},{"name":"西丰县","zipcode":"112000"},{"name":"银州区","zipcode":"112000"},{"name":"其他","zipcode":"112000"}]},{"name":"营口市","district":[{"name":"鲅鱼圈区","zipcode":"115000"},{"name":"大石桥市","zipcode":"115000"},{"name":"盖州市","zipcode":"115000"},{"name":"老边区","zipcode":"115000"},{"name":"西市区","zipcode":"115000"},{"name":"站前区","zipcode":"115000"},{"name":"其他","zipcode":"115000"}]}]}