{"code":0,"data":{"name":"重庆市","district":[{"name":"巴南区","zipcode":"404100"},{"name":"北碚区","zipcode":"404100"},{"name":"璧山县","zipcode":"404100"},{"name":"长寿区","zipcode":"404100"},{"name":"城口县","zipcode":"404100"},{"name":"大渡口区","zipcode":"404100"},{"name":"大足县","zipcode":"404100"},{"name":"垫江县","zipcode":"404100"},{"name":"丰都县","zipcode":"404100"},{"name":"奉节县","zipcode":"404100"},{"name":"涪陵区","zipcode":"404100"},{"name":"合川区","zipcode":"404100"},{"name":"江北区","zipcode":"404100"},{"name":"江津区","zipcode":"404100"},{"name":"九龙坡区","zipcode":"404100"},{"name":"开县","zipcode":"404100"},{"name":"梁平县","zipcode":"404100"},{"name":"南岸区","zipcode":"404100"},{"name":"南川区","zipcode":"404100"},{"name":"彭水苗族土家族自治县","zipcode":"404100"},{"name":"綦江县","zipcode":"404100"},{"name":"黔江区","zipcode":"404100"},{"name":"荣昌县","zipcode":"404100"},{"name":"沙坪坝区","zipcode":"404100"},{"name":"石柱土家族自治县","zipcode":"404100"},{"name":"双桥区","zipcode":"404100"},{"name":"铜梁县","zipcode":"404100"},{"name":"潼南县","zipcode":"404100"},{"name":"万盛区","zipcode":"404100"},{"name":"万州区","zipcode":"404100"},{"name":"巫山县","zipcode":"404100"},{"name":"巫溪县","zipcode":"404100"},{"name":"武隆县","zipcode":"404100"},{"name":"秀山土家族苗族自治县","zipcode":"404100"},{"name":"永川区","zipcode":"404100"},{"name":"酉阳土家族苗族自治县","zipcode":"404100"},{"name":"渝北区","zipcode":"404100"},{"name":"渝中区","zipcode":"404100"},{"name":"云阳县","zipcode":"404100"},{"name":"忠县","zipcode":"404100"},{"name":"其他","zipcode":"404100"}]}}