{"code":0,"data":[{"name":"安康市","district":[{"name":"白河县","zipcode":"725000"},{"name":"汉滨区","zipcode":"725000"},{"name":"汉阴县","zipcode":"725000"},{"name":"岚皋县","zipcode":"725000"},{"name":"宁陕县","zipcode":"725000"},{"name":"平利县","zipcode":"725000"},{"name":"石泉县","zipcode":"725000"},{"name":"旬阳县","zipcode":"725000"},{"name":"镇坪县","zipcode":"725000"},{"name":"紫阳县","zipcode":"725000"},{"name":"其他","zipcode":"725000"}]},{"name":"宝鸡市","district":[{"name":"陈仓区","zipcode":"721000"},{"name":"凤县","zipcode":"721000"},{"name":"凤翔县","zipcode":"721000"},{"name":"扶风县","zipcode":"721000"},{"name":"金台区","zipcode":"721000"},{"name":"麟游县","zipcode":"721000"},{"name":"陇县","zipcode":"721000"},{"name":"眉县","zipcode":"721000"},{"name":"岐山县","zipcode":"721000"},{"name":"千阳县","zipcode":"721000"},{"name":"太白县","zipcode":"721000"},{"name":"渭滨区","zipcode":"721000"},{"name":"其他","zipcode":"721000"}]},{"name":"汉中市","district":[{"name":"城固县","zipcode":"723000"},{"name":"佛坪县","zipcode":"723000"},{"name":"汉台区","zipcode":"723000"},{"name":"留坝县","zipcode":"723000"},{"name":"略阳县","zipcode":"723000"},{"name":"勉县","zipcode":"723000"},{"name":"南郑县","zipcode":"723000"},{"name":"宁强县","zipcode":"723000"},{"name":"西乡县","zipcode":"723000"},{"name":"洋县","zipcode":"723000"},{"name":"镇巴县","zipcode":"723000"},{"name":"其他","zipcode":"723000"}]},{"name":"商洛市","district":[{"name":"丹凤县","zipcode":"726000"},{"name":"洛南县","zipcode":"726000"},{"name":"山阳县","zipcode":"726000"},{"name":"商南县","zipcode":"726000"},{"name":"商州区","zipcode":"726000"},{"name":"镇安县","zipcode":"726000"},{"name":"柞水县","zipcode":"726000"},{"name":"其他","zipcode":"726000"}]},{"name":"铜川市","district":[{"name":"王益区","zipcode":"727000"},{"name":"耀州区","zipcode":"727000"},{"name":"宜君县","zipcode":"727000"},{"name":"印台区","zipcode":"727000"},{"name":"其他","zipcode":"727000"}]},{"name":"渭南市","district":[{"name":"白水县","zipcode":"714000"},{"name":"澄城县","zipcode":"714000"},{"name":"大荔县","zipcode":"714000"},{"name":"富平县","zipcode":"714000"},{"name":"韩城市","zipcode":"714000"},{"name":"合阳县","zipcode":"714000"},{"name":"华县","zipcode":"714000"},{"name":"华阴市","zipcode":"714000"},{"name":"临渭区","zipcode":"714000"},{"name":"蒲城县","zipcode":"714000"},{"name":"潼关县","zipcode":"714000"},{"name":"其他","zipcode":"714000"}]},{"name":"西安市","district":[{"name":"灞桥区","zipcode":"710000"},{"name":"碑林区","zipcode":"710000"},{"name":"长安区","zipcode":"710000"},{"name":"高陵县","zipcode":"710000"},{"name":"户县","zipcode":"710000"},{"name":"蓝田县","zipcode":"710000"},{"name":"莲湖区","zipcode":"710000"},{"name":"临潼区","zipcode":"710000"},{"name":"未央区","zipcode":"710000"},{"name":"新城区","zipcode":"710000"},{"name":"阎良区","zipcode":"710000"},{"name":"雁塔区","zipcode":"710000"},{"name":"周至县","zipcode":"710000"},{"name":"其他","zipcode":"710000"}]},{"name":"咸阳市","district":[{"name":"彬县","zipcode":"712000"},{"name":"长武县","zipcode":"712000"},{"name":"淳化县","zipcode":"712000"},{"name":"泾阳县","zipcode":"712000"},{"name":"礼泉县","zipcode":"712000"},{"name":"乾县","zipcode":"712000"},{"name":"秦都区","zipcode":"712000"},{"name":"三原县","zipcode":"712000"},{"name":"渭城区","zipcode":"712000"},{"name":"武功县","zipcode":"712000"},{"name":"兴平市","zipcode":"712000"},{"name":"旬邑县","zipcode":"712000"},{"name":"杨凌区","zipcode":"712000"},{"name":"永寿县","zipcode":"712000"},{"name":"其他","zipcode":"712000"}]},{"name":"延安市","district":[{"name":"安塞县","zipcode":"716000"},{"name":"宝塔区","zipcode":"716000"},{"name":"富县","zipcode":"716000"},{"name":"甘泉县","zipcode":"716000"},{"name":"黄陵县","zipcode":"716000"},{"name":"黄龙县","zipcode":"716000"},{"name":"洛川县","zipcode":"716000"},{"name":"延长县","zipcode":"716000"},{"name":"延川县","zipcode":"716000"},{"name":"宜川县","zipcode":"716000"},{"name":"志丹县","zipcode":"716000"},{"name":"子长县","zipcode":"716000"},{"name":"其他","zipcode":"716000"}]},{"name":"榆林市","district":[{"name":"定边县","zipcode":"719000"},{"name":"府谷县","zipcode":"719000"},{"name":"横山县","zipcode":"719000"},{"name":"佳县","zipcode":"719000"},{"name":"靖边县","zipcode":"719000"},{"name":"米脂县","zipcode":"719000"},{"name":"清涧县","zipcode":"719000"},{"name":"神木县","zipcode":"719000"},{"name":"绥德县","zipcode":"719000"},{"name":"吴堡县","zipcode":"719000"},{"name":"榆阳区","zipcode":"719000"},{"name":"子洲县","zipcode":"719000"},{"name":"其他","zipcode":"719000"}]}]}