{"code":0,"data":[{"name":"果洛藏族自治州","district":[{"name":"班玛县","zipcode":"814000"},{"name":"达日县","zipcode":"814000"},{"name":"甘德县","zipcode":"814000"},{"name":"久治县","zipcode":"814000"},{"name":"玛多县","zipcode":"814000"},{"name":"玛沁县","zipcode":"814000"},{"name":"其他","zipcode":"814000"}]},{"name":"海北藏族自治州","district":[{"name":"刚察县","zipcode":"812200"},{"name":"海晏县","zipcode":"812200"},{"name":"门源回族自治县","zipcode":"812200"},{"name":"祁连县","zipcode":"812200"},{"name":"其他","zipcode":"812200"}]},{"name":"海东地区","district":[{"name":"互助土族自治县","zipcode":"810600"},{"name":"化隆回族自治县","zipcode":"810600"},{"name":"乐都县","zipcode":"810600"},{"name":"民和回族土族自治县","zipcode":"810600"},{"name":"平安县","zipcode":"810600"},{"name":"循化撒拉族自治县","zipcode":"810600"},{"name":"其他","zipcode":"810600"}]},{"name":"海南藏族自治州","district":[{"name":"共和县","zipcode":"813000"},{"name":"贵德县","zipcode":"813000"},{"name":"贵南县","zipcode":"813000"},{"name":"同德县","zipcode":"813000"},{"name":"兴海县","zipcode":"813000"},{"name":"其他","zipcode":"813000"}]},{"name":"海西蒙古族藏族自治州","district":[{"name":"大柴旦","zipcode":"817000"},{"name":"德令哈市","zipcode":"817000"},{"name":"都兰县","zipcode":"817000"},{"name":"格尔木市","zipcode":"817000"},{"name":"冷湖","zipcode":"817000"},{"name":"茫崖","zipcode":"817000"},{"name":"天峻县","zipcode":"817000"},{"name":"乌兰县","zipcode":"817000"},{"name":"其他","zipcode":"817000"}]},{"name":"黄南藏族自治州","district":[{"name":"河南蒙古族自治县","zipcode":"811300"},{"name":"尖扎县","zipcode":"811300"},{"name":"同仁县","zipcode":"811300"},{"name":"泽库县","zipcode":"811300"},{"name":"其他","zipcode":"811300"}]},{"name":"西宁市","district":[{"name":"城北区","zipcode":"810000"},{"name":"城东区","zipcode":"810000"},{"name":"城西区","zipcode":"810000"},{"name":"城中区","zipcode":"810000"},{"name":"大通回族土族自治县","zipcode":"810000"},{"name":"湟源县","zipcode":"810000"},{"name":"湟中县","zipcode":"810000"},{"name":"其他","zipcode":"810000"}]},{"name":"玉树藏族自治州","district":[{"name":"称多县","zipcode":"815000"},{"name":"囊谦县","zipcode":"815000"},{"name":"曲麻莱县","zipcode":"815000"},{"name":"玉树县","zipcode":"815000"},{"name":"杂多县","zipcode":"815000"},{"name":"治多县","zipcode":"815000"},{"name":"其他","zipcode":"815000"}]}]}