{"code":0,"data":[{"name":"大庆市","district":[{"name":"大同区","zipcode":"163000"},{"name":"杜尔伯特蒙古族自治县","zipcode":"163000"},{"name":"红岗区","zipcode":"163000"},{"name":"林甸县","zipcode":"163000"},{"name":"龙凤区","zipcode":"163000"},{"name":"让胡路区","zipcode":"163000"},{"name":"萨尔图区","zipcode":"163000"},{"name":"肇源县","zipcode":"163000"},{"name":"肇州县","zipcode":"163000"},{"name":"其他","zipcode":"163000"}]},{"name":"大兴安岭地区","district":[{"name":"呼玛县","zipcode":"165000"},{"name":"呼中区","zipcode":"165000"},{"name":"加格达奇区","zipcode":"165000"},{"name":"漠河县","zipcode":"165000"},{"name":"松岭区","zipcode":"165000"},{"name":"塔河县","zipcode":"165000"},{"name":"新林区","zipcode":"165000"},{"name":"其他","zipcode":"165000"}]},{"name":"哈尔滨市","district":[{"name":"阿城区","zipcode":"150000"},{"name":"巴彦县","zipcode":"150000"},{"name":"宾县","zipcode":"150000"},{"name":"道里区","zipcode":"150000"},{"name":"道外区","zipcode":"150000"},{"name":"方正县","zipcode":"150000"},{"name":"呼兰区","zipcode":"150000"},{"name":"木兰县","zipcode":"150000"},{"name":"南岗区","zipcode":"150000"},{"name":"平房区","zipcode":"150000"},{"name":"尚志市","zipcode":"150000"},{"name":"双城市","zipcode":"150000"},{"name":"松北区","zipcode":"150000"},{"name":"通河县","zipcode":"150000"},{"name":"五常市","zipcode":"150000"},{"name":"香坊区","zipcode":"150000"},{"name":"延寿县","zipcode":"150000"},{"name":"依兰县","zipcode":"150000"},{"name":"其他","zipcode":"150000"}]},{"name":"鹤岗市","district":[{"name":"东山区","zipcode":"154100"},{"name":"工农区","zipcode":"154100"},{"name":"萝北县","zipcode":"154100"},{"name":"南山区","zipcode":"154100"},{"name":"绥滨县","zipcode":"154100"},{"name":"向阳区","zipcode":"154100"},{"name":"兴安区","zipcode":"154100"},{"name":"兴山区","zipcode":"154100"},{"name":"其他","zipcode":"154100"}]},{"name":"黑河市","district":[{"name":"爱辉区","zipcode":"164300"},{"name":"北安市","zipcode":"164300"},{"name":"嫩江县","zipcode":"164300"},{"name":"孙吴县","zipcode":"164300"},{"name":"五大连池市","zipcode":"164300"},{"name":"逊克县","zipcode":"164300"},{"name":"其他","zipcode":"164300"}]},{"name":"鸡西市","district":[{"name":"城子河区","zipcode":"158100"},{"name":"滴道区","zipcode":"158100"},{"name":"恒山区","zipcode":"158100"},{"name":"虎林市","zipcode":"158100"},{"name":"鸡东县","zipcode":"158100"},{"name":"鸡冠区","zipcode":"158100"},{"name":"梨树区","zipcode":"158100"},{"name":"麻山区","zipcode":"158100"},{"name":"密山市","zipcode":"158100"},{"name":"其他","zipcode":"158100"}]},{"name":"佳木斯市","district":[{"name":"东风区","zipcode":"154000"},{"name":"抚远县","zipcode":"154000"},{"name":"富锦市","zipcode":"154000"},{"name":"桦川县","zipcode":"154000"},{"name":"桦南县","zipcode":"154000"},{"name":"郊区","zipcode":"154000"},{"name":"前进区","zipcode":"154000"},{"name":"汤原县","zipcode":"154000"},{"name":"同江市","zipcode":"154000"},{"name":"向阳区","zipcode":"154000"},{"name":"其他","zipcode":"154000"}]},{"name":"牡丹江市","district":[{"name":"爱民区","zipcode":"157000"},{"name":"东安区","zipcode":"157000"},{"name":"东宁县","zipcode":"157000"},{"name":"海林市","zipcode":"157000"},{"name":"林口县","zipcode":"157000"},{"name":"穆棱市","zipcode":"157000"},{"name":"宁安市","zipcode":"157000"},{"name":"绥芬河市","zipcode":"157000"},{"name":"西安区","zipcode":"157000"},{"name":"阳明区","zipcode":"157000"},{"name":"其他","zipcode":"157000"}]},{"name":"七台河市","district":[{"name":"勃利县","zipcode":"154600"},{"name":"茄子河区","zipcode":"154600"},{"name":"桃山区","zipcode":"154600"},{"name":"新兴区","zipcode":"154600"},{"name":"其他","zipcode":"154600"}]},{"name":"齐齐哈尔市","district":[{"name":"昂昂溪区","zipcode":"161000"},{"name":"拜泉县","zipcode":"161000"},{"name":"富拉尔基区","zipcode":"161000"},{"name":"富裕县","zipcode":"161000"},{"name":"甘南县","zipcode":"161000"},{"name":"建华区","zipcode":"161000"},{"name":"克东县","zipcode":"161000"},{"name":"克山县","zipcode":"161000"},{"name":"龙江县","zipcode":"161000"},{"name":"龙沙区","zipcode":"161000"},{"name":"梅里斯达斡尔族区","zipcode":"161000"},{"name":"讷河市","zipcode":"161000"},{"name":"碾子山区","zipcode":"161000"},{"name":"泰来县","zipcode":"161000"},{"name":"铁锋区","zipcode":"161000"},{"name":"依安县","zipcode":"161000"},{"name":"其他","zipcode":"161000"}]},{"name":"双鸭山市","district":[{"name":"宝清县","zipcode":"155100"},{"name":"宝山区","zipcode":"155100"},{"name":"集贤县","zipcode":"155100"},{"name":"尖山区","zipcode":"155100"},{"name":"岭东区","zipcode":"155100"},{"name":"饶河县","zipcode":"155100"},{"name":"四方台区","zipcode":"155100"},{"name":"友谊县","zipcode":"155100"},{"name":"其他","zipcode":"155100"}]},{"name":"绥化市","district":[{"name":"安达市","zipcode":"152000"},{"name":"北林区","zipcode":"152000"},{"name":"海伦市","zipcode":"152000"},{"name":"兰西县","zipcode":"152000"},{"name":"明水县","zipcode":"152000"},{"name":"青冈县","zipcode":"152000"},{"name":"庆安县","zipcode":"152000"},{"name":"绥棱县","zipcode":"152000"},{"name":"望奎县","zipcode":"152000"},{"name":"肇东市","zipcode":"152000"},{"name":"其他","zipcode":"152000"}]},{"name":"伊春市","district":[{"name":"翠峦区","zipcode":"152300"},{"name":"带岭区","zipcode":"152300"},{"name":"红星区","zipcode":"152300"},{"name":"嘉荫县","zipcode":"152300"},{"name":"金山屯区","zipcode":"152300"},{"name":"美溪区","zipcode":"152300"},{"name":"南岔区","zipcode":"152300"},{"name":"上甘岭区","zipcode":"152300"},{"name":"汤旺河区","zipcode":"152300"},{"name":"铁力市","zipcode":"152300"},{"name":"乌马河区","zipcode":"152300"},{"name":"乌伊岭区","zipcode":"152300"},{"name":"五营区","zipcode":"152300"},{"name":"西林区","zipcode":"152300"},{"name":"新青区","zipcode":"152300"},{"name":"伊春区","zipcode":"152300"},{"name":"友好区","zipcode":"152300"},{"name":"其他","zipcode":"152300"}]}]}